building_id;name;address;latitude;longitude;image_url
16;"ЖК Панорама на Печерске";"ул. Евгения Коновальца (Щорса), 44а";50.42257680223414;30.537777842962377;https://img.lun.ua/building-1600x1200/2708.jpg
17;"ЖК Времена Года";"ул. Кудряшова, 14, 16, 18, 20, 20б, 20г";50.43031004702142;30.48630638794537;https://img.lun.ua/building-1600x1200/2712.jpg
18;"ЖК Golden Park";"ул. Парково-Сырецкая (Тимофея Шамрыло), 4б";50.46408945170423;30.438550510343703;https://img.lun.ua/building-1600x1200/2726.jpg
19;"ЖК Изумрудный";"ул. Генерала Шаповала (Механизаторов), 2";50.430436880123;30.484166425131;https://img.lun.ua/building-1600x1200/5057.jpg
20;"ЖК Паркове місто";"ул. Вышгородская, 45а/2, 45а/4, 45а/5, 45а/6, 45б/1, 45б/3, 45б/4";50.509893760884765;30.44802836574557;https://img.lun.ua/building-1600x1200/29458.png
22;"ЖК Престиж Холл";"ул. Анри Барбюса, 37/1";50.421248533292;30.526252195106;https://img.lun.ua/building-1600x1200/2731.jpg
23;"ЖК Авиатор";"просп. Космонавта Комарова, 22-28";50.439334743443766;30.42178798084259;https://img.lun.ua/building-1600x1200/23450.jpg
24;"ЖК Триумф";"ул. Зверинецкая, 59";50.407525213349;30.555207598954;https://img.lun.ua/building-1600x1200/4053.jpg
25;"ЖК Сонячна брама";"ул. Ломоносова, 73-79";50.385762552651;30.473251763139;https://img.lun.ua/building-1600x1200/21604.jpg
28;"ЖК 4 сезона";"ул. Михаила Максимовича (Трутенко), 3г";50.390913646154;30.479942315385;https://img.lun.ua/building-1600x1200/21795.jpg
30;"ЖК Botanic Paradise";"ул. Назаровская (Ветрова), 23";50.4436864468;30.49931530955;https://img.lun.ua/building-1600x1200/2745.jpg
35;"ЖК Новопечерские Липки";"ул. Михаила Драгомирова, 1, 3, 5, 12, 14, 16б, 18а, 20а";50.411472918135;30.545440520524;https://img.lun.ua/building-1600x1200/24105.jpg
36;"ЖК Park Avenue VIP";"просп. Голосеевский, 58а";50.40117345789475;30.512080489473682;https://img.lun.ua/building-1600x1200/28388.jpg
39;"ЖК Печерский квартал";"бул. Дружбы Народов, 14-16";50.413656140533;30.539352387421;https://img.lun.ua/building-1600x1200/2746.jpg
41;"ЖК Покровский посад";"ул. Глубочицкая, 32а, 32б, 32в";50.461923725323;30.493509639055;https://img.lun.ua/building-1600x1200/4984.jpg
42;"ЖК Приозерный";"ул. Здолбуновская, 11в";50.41477110895807;30.621060104557046;https://img.lun.ua/building-1600x1200/2563.jpg
45;"ЖК Парковые озера";"ул. Воскресенская, 12а, 12б, 12в, 12г, 14б, 14д, 14е, 16б, 16в, 16г";50.466556423022;30.602926981814;https://img.lun.ua/building-1600x1200/4867.jpg
47;"ЖК Александровский";"просп. Валерия Лобановского (Краснозвездный), 4а, 4б, 4в, 4г";50.42254722575069;30.462656506883583;https://img.lun.ua/building-1600x1200/2752.jpg
49;"ЖК Виктория";"просп. Победы, 119-121";50.454801583333335;30.36112784166667;https://img.lun.ua/building-1600x1200/2755.jpg
50;"ЖК Воскресенский";"ул. Петра Запорожца, 26а";50.479575217074;30.604247493265575;https://img.lun.ua/building-1600x1200/4272.jpg
51;"ЖК Парковый";"бул. Кольцова, 14";50.42382033333333;30.382027893333333;https://img.lun.ua/building-1600x1200/2777.jpg
52;"ЖК Голосеево";"ул. Голосеевская, 13, 13а, 13б";50.3996566390446;30.521005716949457;https://img.lun.ua/building-1600x1200/2784.jpg
53;"ЖК Ривьера Риверсайд";"ул. Раисы Окипной, 18";50.447450058403824;30.589288947082483;https://img.lun.ua/building-1600x1200/4058.jpg
55;"ЖК Альпийский городок";"ул. Протасов Яр, 8";50.42711448676518;30.499635199812474;https://img.lun.ua/building-1600x1200/4063.jpg
56;"ЖК Перлина Кадетського Гаю";"ул. Эрнста Федора, 16";50.415962425872316;30.46370644583887;https://img.lun.ua/building-1600x1200/2791.jpg
59;;"просп. Героев Сталинграда, 2";50.490854893791465;30.527974028465444;https://img.lun.ua/building-1600x1200/4292.jpg
60;"ЖК Лико-Град 3";"ул. Ломоносова";50.3862471294059;30.466693288520673;https://img.lun.ua/building-1600x1200/2801.jpg
61;;"ул. Гашека, 8а";50.435900449395874;30.628070949999938;https://img.lun.ua/building-1600x1200/35706.jpg
63;;"ул. Тычины, 18б";50.42768179850865;30.603319201049807;https://img.lun.ua/building-1600x1200/22429.jpg
64;;"ул. Урицкого, 18, 18в";50.43393838310511;30.48412764712145;https://img.lun.ua/building-1600x1200/2810.jpg
65;;"ул. Княжий Затон, 9";50.402030731801375;30.624979239425613;https://img.lun.ua/building-1600x1200/2815.jpg
67;"ЖК Silver Breeze";"Днепровская набережная, 1, 1а, 1б";50.42830433868702;30.594531186514814;https://img.lun.ua/building-1600x1200/4307.jpg
68;"ЖК Жемчужина Нивок";"ул. Данила Щербакивского (Щербакова), 52";50.470647005;30.406437725;https://img.lun.ua/building-1600x1200/4308.jpg
70;"ЖК Мега-сити";"Харьковское шоссе, 19";50.43150758824253;30.634988628311152;https://img.lun.ua/building-1600x1200/2566.jpg
71;;"ул. Николая Голего (Лебедева-Кумача), 7в";50.438807778580006;30.438174403427098;https://img.lun.ua/building-1600x1200/2816.jpg
72;;"просп. Правды, 80-82";50.5059415263475;30.418115375671363;https://img.lun.ua/building-1600x1200/2820.jpg
74;"ЖК PecherSKY";"бул. Дружбы Народов, 40 / ул. Болсуновская (Струтинского), 2";50.421239319372226;30.552816541037714;https://img.lun.ua/building-1600x1200/5405.jpg
78;"ЖК Три Богатыря";"ул. Борщаговская, 182в";50.44366535533737;30.437015881743378;https://img.lun.ua/building-1600x1200/4315.jpg
80;;"ул. Елизаветы Чавдар, 1";50.39368871231586;30.618281830688442;https://img.lun.ua/building-1600x1200/2823.jpg
81;;"ул. Петра Калнышевского (Михаила Майорова), 7 (5а)";50.521863801730404;30.463768185180697;https://img.lun.ua/building-1600x1200/2825.jpg
82;"ЖК Ново-Демеевский";"просп. Валерия Лобановского (Краснозвездный), 150-162";50.4068211758022;30.50902584496389;https://img.lun.ua/building-1600x1200/2826.jpg
84;;"ул. Крамского, 9";50.45344845;30.372688450000002;https://img.lun.ua/building-1600x1200/2830.jpg
87;"ЖК Henesi House";"ул. Нагорная, 18/16";50.473061378907936;30.482147494331002;https://img.lun.ua/building-1600x1200/21569.jpg
88;;"ул. Львовская, 26а";50.45495254865507;30.372754474868714;https://img.lun.ua/building-1600x1200/4244.jpg
91;"ЖК Дом на Пчелки";"ул. Елены Пчелки, 4, 4а";50.41635200680179;30.629168098147538;https://img.lun.ua/building-1600x1200/2837.jpg
93;;"ул. Урловская, 36";50.410657745905056;30.616714163462348;https://img.lun.ua/building-1600x1200/2838.jpg
108;;"ул. Ахматовой, 30 (стройпл. 7, Позняки-2)";50.40816062194602;30.623019828747374;https://img.lun.ua/building-1600x1200/4636.jpg
110;"ЖК Зеленый Мыс";"ул. Генерала Наумова, 66";50.47076836085973;30.329698186508182;https://img.lun.ua/building-1600x1200/2840.jpg
120;;"ул. Днепровская набережная, 19, 19а, 19в, 23, 25";50.407135456475;30.613294355571;https://img.lun.ua/building-1600x1200/2842.jpg
143;"ЖК Комфорт Таун";"ул. Регенераторная, 4";50.438021593753;30.620627526866;https://img.lun.ua/building-1600x1200/5778.jpg
165;"ЖК Троещина";"ул. Николая Лаврухина, 11, 12, 13, 14";50.518061644051;30.598089008459;https://img.lun.ua/building-1600x1200/2856.jpg
167;;"ул. Гмыри, 6";50.393165;30.626928;https://img.lun.ua/building-1600x1200/2861.jpg
174;;"ул. Антоновича (Горького), 72";50.42667050010239;30.513879652778627;https://img.lun.ua/building-1600x1200/2862.jpg
180;"ЖК Jardan Le Roi";"ул. Гастелло, 10";50.40978132000001;30.556891459999996;https://img.lun.ua/building-1600x1200/2863.jpg
182;"ЖК Лазурный блюз";"ул. Туманяна, 15а";50.44387445512174;30.604766271513846;https://img.lun.ua/building-1600x1200/2866.jpg
184;;"ул. Елизаветы Чавдар, 3, 5, 7, 9";50.393930281172;30.621336568147;https://img.lun.ua/building-1600x1200/2868.jpg
186;;"ул. Каунасская, 2а";50.438929905467;30.623141247779;https://img.lun.ua/building-1600x1200/4316.jpg
187;;"ул. Богдана Хмельницкого, 58а";50.448094414121364;30.50536172023769;https://img.lun.ua/building-1600x1200/4322.jpg
197;"ЖК Тридцать восьмая жемчужина";"ул. Жилянская, 68";50.43656812241047;30.503355721011758;https://img.lun.ua/building-1600x1200/21198.jpg
199;;"ул. Урловская, 40";50.41158043242967;30.61519599999999;https://img.lun.ua/building-1600x1200/2875.jpg
202;;"ул. Урловская, 34а";50.41015439486262;30.617618730629374;https://img.lun.ua/building-1600x1200/2884.jpg
216;;"ул. Урловская, 30";50.409479859200566;30.618627437326033;https://img.lun.ua/building-1600x1200/2886.jpg
219;"ЖК Ново-Никольский";"просп. Леся Курбаса, 7-7а";50.42612417966764;30.382030908673944;https://img.lun.ua/building-1600x1200/2887.jpg
221;;"ул. Урловская, 38 (стройпл. 4, Позняки-2)";50.411625744718;30.616483950173;https://img.lun.ua/building-1600x1200/2888.jpg
222;;"ул. Урловская (стройпл. 4в, Позняки-2)";50.410882733333345;30.618953345833336;https://img.lun.ua/building-1600x1200/2891.jpg
224;;"ул. Януша Корчака (Баумана), 25";50.46733651111111;30.41687388888889;https://img.lun.ua/building-1600x1200/2896.jpg
228;;"ул. Борщаговская, 208";50.44253527630987;30.435132279497566;https://img.lun.ua/building-1600x1200/4324.jpg
234;;"ул. Соломенская, 15а";50.42459132349428;30.47867825531445;https://img.lun.ua/building-1600x1200/2897.jpg
243;;"пер. Моторный, 9, 9а";50.376629379757;30.540554413466;https://img.lun.ua/building-1600x1200/4328.jpg
244;;"просп. Науки, 80а/73";50.37533381428572;30.539412671428575;https://img.lun.ua/building-1600x1200/23923.jpg
246;;"ул. Евгения Харченка (Ленина), 47-59";50.38234142700315;30.699327243022708;https://img.lun.ua/building-1600x1200/18060.jpg
256;"ЖК Молодежный квартал";"ул. Ващенко, 1, 3, 5, 7, ул. Елизаветы Чавдар, 2, 4, 6, 8, 14, 18, 22, 24";50.390647896020674;30.623686165668552;https://img.lun.ua/building-1600x1200/4335.jpg
267;"ЖК Затишний";"ул. Степана Руданского, 3, 3а";50.468044899999995;30.430799875;https://img.lun.ua/building-1600x1200/2568.jpg
271;"ЖК Вертикаль";"пер. Ковальский, 19";50.44695106597709;30.448858547142095;https://img.lun.ua/building-1600x1200/2902.jpg
276;"ЖК Richmond";"ул. Джона Маккейна (Ивана Кудри), 26";50.418314780901845;30.539445597678423;https://img.lun.ua/building-1600x1200/27156.jpg
277;"ЖК Шулявский";"пер. Машиностроительный, 26";50.44906513350417;30.435979110673543;https://img.lun.ua/building-1600x1200/32352.jpg
278;"ЖК Срібна Вежа";"ул. Белорусская, 36а";50.46571696363637;30.47309499090909;https://img.lun.ua/building-1600x1200/4344.jpg
282;;"ул. Инженера Бородина (Лазо), 4-6";50.448256096212745;30.671727721555612;https://img.lun.ua/building-1600x1200/2909.jpg
287;"ЖК Виноградный (Синеозёрный)";"просп. Правды, 102";50.507966094945516;30.407266540227692;https://img.lun.ua/building-1600x1200/2580.jpg
315;"ЖК Сосновый бор";"ул. Олевская, 3, 15, 17 / ул. Бахмачская, 20";50.47927323571428;30.344332921428578;https://img.lun.ua/building-1600x1200/2588.jpg
319;;"ул. Козацкая, 112-114";50.398646;30.498077999999964;https://img.lun.ua/building-1600x1200/2913.jpg
321;;"просп. Правды, 5";50.50485788571429;30.44765665238095;https://img.lun.ua/building-1600x1200/2916.jpg
322;;"ул. Автозаводская, 29а";50.50811215538819;30.457470839286763;https://img.lun.ua/building-1600x1200/2917.jpg
323;;"бул. Леси Украинки, 7б";50.43283716838143;30.534036052807778;https://img.lun.ua/building-1600x1200/17748.jpg
324;"ЖК Ревуцкого, 9";"ул. Ревуцкого, 9";50.419213956217;30.642685588449;https://img.lun.ua/building-1600x1200/5087.jpg
335;"ЖК Васильковский";"пер. Коломиевский, 17/31";50.39351955276762;30.49117915212321;https://img.lun.ua/building-1600x1200/2925.jpg
336;;"просп. Маяковского, 1-3";50.497498562157;30.582936443388;https://img.lun.ua/building-1600x1200/2938.jpg
337;"ЖК Милославичи";"ул. Закревского, 95, 97, 97а, ул. Милославская, 11, 13, 14";50.529369159296;30.626343377363;https://img.lun.ua/building-1600x1200/4076.jpg
340;"ЖК Перовский";"бул. Перова, 10а, ул. Алишера Навои, 69";50.47155686498633;30.599377385488886;https://img.lun.ua/building-1600x1200/4280.jpg
341;;"ул. Алма-Атинская, 109б";50.45221912487071;30.68110207605745;https://img.lun.ua/building-1600x1200/2942.jpg
342;;"ул. Красноткацкая, 43";50.4552274070129;30.63125678749998;https://img.lun.ua/building-1600x1200/2943.jpg
343;"ЖК Элегант";"ул. Жилянская, 118";50.441945833333335;30.496742;https://img.lun.ua/building-1600x1200/2944.jpg
344;"Клубный Дом «На Мичурина»";"ул. Мичурина, 61";50.422279583333335;30.563176266666662;https://img.lun.ua/building-1600x1200/2949.jpg
346;;"ул. Десятинная, 11";50.457255149999995;30.5195334;https://img.lun.ua/building-1600x1200/2959.jpg
347;;"ул. Вышгородская, 54б";50.518051133814446;30.451796424977488;https://img.lun.ua/building-1600x1200/2960.jpg
451;"ЖК Санаторный";"ул. Санаторная, 4";50.42976046655567;30.658576114086134;https://img.lun.ua/building-1600x1200/2962.jpg
452;;"ул. Николая Краснова, 19";50.459990624999996;30.372595125;https://img.lun.ua/building-1600x1200/4349.jpg
453;"ЖК Флагман";"пер. Лобачевского, 7, 7а";50.4364775578762;30.63454740612787;https://img.lun.ua/building-1600x1200/2601.jpg
482;"ЖК Crystal Park";"просп. Победы, 42";50.455970914214426;30.45217577368021;https://img.lun.ua/building-1600x1200/4357.jpg
527;;"ул. Дьяченко (Бортничи), 20, 20а, 20б, 20в";50.37972946475106;30.706342339950545;https://img.lun.ua/building-1600x1200/2966.jpg
529;;"Харьковское шоссе, 58б";50.421949777901;30.6451424025;https://img.lun.ua/building-1600x1200/2968.jpg
531;"ЖК Smart Plaza Polytech";"просп. Победы, 26";50.45147712083334;30.468262895833323;https://img.lun.ua/building-1600x1200/5236.jpg
532;;"ул. Максима Кривоноса, 17/8";50.424591517610565;30.471353330024705;https://img.lun.ua/building-1600x1200/4359.jpg
533;"ЖК Адмирал";"ул. Николая Ушакова, 1б, 1в, 1г";50.458876928382026;30.33773811534047;https://img.lun.ua/building-1600x1200/18570.jpg
539;"ЖК НебоSky";"ул. Закревского, 42а";50.52137129944552;30.630479629638625;https://img.lun.ua/building-1600x1200/2604.jpg
561;"ЖК Липинка";"ул. Замковецкая, 102, 102а, 102б, 104, 104а, 106, 106а, 106б, ул. Кавалеридзе, 1, 3, 5, 7, 9, 11, ул. Данченко, 2, 4, 6, 8, 10";50.495100481867;30.431032586843;https://img.lun.ua/building-1600x1200/35836.png
562;"ЖК RiverStone";"ул. Днепровская набережная, 14, 14а, 14б";50.402637776506374;30.614323994786997;https://img.lun.ua/building-1600x1200/17676.jpg
563;;"ул. Ованеса Туманяна, 3";50.4463566375;30.601369587500002;https://img.lun.ua/building-1600x1200/2972.jpg
564;"ЖК H-Tower";"бул. Тараса Шевченко, 28-30";50.445189032216554;30.50488673660766;https://img.lun.ua/building-1600x1200/6267.jpg
581;;"ул. Драгоманова, 6/1";50.41608509088248;30.634736252639755;https://img.lun.ua/building-1600x1200/2976.jpg
617;;"ул. Радунская, 2/18";50.51872385;30.5957651;https://img.lun.ua/building-1600x1200/2977.jpg
623;"ЖК Східна Брама";"ул. Светлая, 3";50.39824503017543;30.692897123664856;https://img.lun.ua/building-1600x1200/2613.jpg
629;"ЖК Diamond Hill";"ул. Ивана Мазепы, 11б";50.44243023000002;30.55060874666667;https://img.lun.ua/building-1600x1200/2979.jpg
630;"ЖК Central Park";"ул. Джона Маккейна (Ивана Кудри), 7";50.414808118863;30.531068388372;https://img.lun.ua/building-1600x1200/5637.jpg
638;;"ул. Евгения Коновальца (Щорса), 36в";50.42513841748319;30.532736906884328;https://img.lun.ua/building-1600x1200/2981.jpg
639;;"Кловский спуск, 7";50.438579702704544;30.538927176967263;https://img.lun.ua/building-1600x1200/2986.jpg
642;;"ул. Казимира Малевича (Боженка), 44 / ул. Ямская, 35";50.42409584858587;30.512589338622913;https://img.lun.ua/building-1600x1200/2997.jpg
734;;"ул. Мишуги, 12";50.39536647550354;30.63626715622284;https://img.lun.ua/building-1600x1200/3002.jpg
735;"ЖК Липская башня";"ул. Институская, 18";50.44580846508452;30.531609618385307;https://img.lun.ua/building-1600x1200/3004.jpg
736;;"ул. Николая Закревского, 93а";50.529760062499996;30.62768294583334;https://img.lun.ua/building-1600x1200/3007.jpg
738;;"ул. Урловская, 23в";50.409635483333325;30.61257468333333;https://img.lun.ua/building-1600x1200/4362.jpg
746;"ЖК на Кондратюка";"ул. Юрия Кондратюка, 3, 5, 7";50.52549425199278;30.46031506733084;https://img.lun.ua/building-1600x1200/5756.jpg
747;"ЖК Зеленый остров";"ул. Танковая, 1";50.463308366506254;30.43262158272545;https://img.lun.ua/building-1600x1200/4364.jpg
768;"Mary Castle";"ул. Дружная, 18";50.431857016523736;30.492432424798608;https://img.lun.ua/building-1600x1200/4378.jpg
771;"ЖК Воздвиженка";"ул. Воздвиженская, 9-19, 22, 48, 50, ул. Дегтярная, 5, ул. Кожемяцкая, 12в, 14б, 14в, 16б, 20в, 20г";50.459891614848;30.511520053446;https://img.lun.ua/building-1600x1200/4085.jpg
776;;"ул. Туполева, 17к";50.48206908822032;30.389287644180282;https://img.lun.ua/building-1600x1200/3009.jpg
777;;"ул. Новомостицкая, 12а";50.500596039296;30.44198342599;https://img.lun.ua/building-1600x1200/4384.jpg
782;"ЖК Барвинок";"ул. Шумского / ул. Березняковская";50.42266943295931;30.604813309539804;https://img.lun.ua/building-1600x1200/4094.jpg
783;;"бул. Леси Украинки, 7а";50.43412828867975;30.53166562167356;https://img.lun.ua/building-1600x1200/3012.jpg
801;"Клубный дом «Золотой Лев»";"пер. Краснокутский, 16";50.43407499408928;30.637884737434383;https://img.lun.ua/building-1600x1200/4385.jpg
802;"Клубный дом «Арт Холл»";"ул. Бульварно-Кудрявская (Воровского), 21";50.45227155454235;30.501350769773126;https://img.lun.ua/building-1600x1200/18514.jpg
804;"ЖК Днепровские башни";"просп. Генерала Ватутина, 9";50.49779874024925;30.579797996032767;https://img.lun.ua/building-1600x1200/4386.jpg
822;"ЖК Новодарницкий";"ул. Юрия Пасхалина (Ильича), 17";50.42551288164964;30.65182427434387;https://img.lun.ua/building-1600x1200/4388.jpg
835;;"ул. Белицкая, 20";50.4944362525;30.4456474675;https://img.lun.ua/building-1600x1200/3019.jpg
836;"ЖК Парк Стоун";"просп. Героев Сталинграда, 2д";50.489932574199685;30.528300021013077;https://img.lun.ua/building-1600x1200/3021.jpg
840;"ЖК Родинний затишок";"бул. Гашека Ярослава, 20, 22, 24";50.4378252090321;30.63436889240967;https://img.lun.ua/building-1600x1200/2624.jpg
842;;"просп. Григоренко, 12-14";50.412407955733;30.623719263822;https://img.lun.ua/building-1600x1200/4098.jpg
844;;"ул. Урловская (стройпл. 10, Позняки-2)";50.407459401855;30.62098743394;https://img.lun.ua/building-1600x1200/3026.jpg
845;;"ул. Петропавловская, 50, 50б";50.483762066666664;30.45874571666667;https://img.lun.ua/building-1600x1200/4391.jpg
846;"ЖК Златоустовский";"ул. Черновола, 27, 29а, ул. Полтавская, 10, ул. Дмитриевская, 75, ул. Златоустовская, 55";50.454852976701;30.485709445845;https://img.lun.ua/building-1600x1200/4627.jpg
847;;"ул. Борщаговская, 152а, 152в";50.446133254177234;30.445984347221295;https://img.lun.ua/building-1600x1200/3030.jpg
849;"ЖК Нагорный";"ул. Нагорная, 15";50.475031324999996;30.4810323;https://img.lun.ua/building-1600x1200/4392.jpg
850;;"ул. Коперника, 11";50.459109225;30.4832925;https://img.lun.ua/building-1600x1200/4761.jpg
856;"ЖК Бульвар Фонтанов";"ул. Иоанна Павла ІІ (Патриса Лумумбы), 6/1";50.41976586514689;30.530372239425645;https://img.lun.ua/building-1600x1200/17151.jpg
857;"ЖК Кришталеві джерела";"ул. Метрологическая, ул. Академика Заболотного, 148";50.34821077594;30.478417728292;https://img.lun.ua/building-1600x1200/31033.jpg
860;"ЖК Уютный дом";"ул. Гетьмана, 30б";50.44511673125;30.440345962500004;https://img.lun.ua/building-1600x1200/4393.jpg
862;;"ул. Антоновича (Горького), 103";50.42361925;30.516651975000002;https://img.lun.ua/building-1600x1200/4641.jpg
874;"ЖК Грюнвальд";"ул. Клавдиевская, 40а, 40б, 40в, 40г, 40д, 40ж, 40е";50.478244675;30.33913505;https://img.lun.ua/building-1600x1200/3031.jpg
875;;"ул. Полесская, 28б";50.42147835;30.6827546;https://img.lun.ua/building-1600x1200/3047.jpg
921;;"просп. Победы, 115а";50.45518050083278;30.36538841667811;https://img.lun.ua/building-1600x1200/4401.jpg
922;;"ул. Елены Пчелки, 5";50.41584019844032;30.6311967332824;https://img.lun.ua/building-1600x1200/3048.jpg
927;"ЖК Парк Хиллс (Молодежная инициатива)";"ул. Степана Руданского, 9а";50.468864363824;30.430355553918;https://img.lun.ua/building-1600x1200/31231.jpg
937;;"ул. Елены Пчелки, 6";50.41686109166667;30.631259195833334;https://img.lun.ua/building-1600x1200/3050.jpg
939;;"пер. Лабораторный, 6";50.426284807925;30.524850558493;https://img.lun.ua/building-1600x1200/3052.jpg
940;;"ул. Константина Данькевича / ул. Марины Цветаевой";50.52172910909091;30.61646689090909;https://img.lun.ua/building-1600x1200/4103.jpg
941;;"ул. Константина Данькевича 10-16, ул. Марины Цветаевой, 11-12";50.521743103346;30.613180734217;https://img.lun.ua/building-1600x1200/4107.jpg
964;"ЖК Симфония";"просп. Науки, 66-70";50.37755676992911;30.53628151918788;https://img.lun.ua/building-1600x1200/4406.jpg
974;"ЖК Полесский";"ул. Николая Хвылевого, 1";50.417607228517;30.680842269212;https://img.lun.ua/building-1600x1200/4109.jpg
986;;"ул. Васильченко, 3/24";50.42501194492819;30.446795949737506;https://img.lun.ua/building-1600x1200/3059.jpg
988;;"ул. Львовская, 22, 22а";50.45491945;30.37466125;https://img.lun.ua/building-1600x1200/3060.jpg
1007;;"ул. Урловская, 20";50.40835756086957;30.62019343695652;https://img.lun.ua/building-1600x1200/23809.jpg
1012;"ЖК Татарский";"ул. Отто Шмидта, 10ж";50.47020328132706;30.491118747740984;https://img.lun.ua/building-1600x1200/3064.jpg
1013;"ЖК Стольный град";"ул. Лысянская, 9";50.51822975724324;30.439582965306272;https://img.lun.ua/building-1600x1200/3076.jpg
1024;"ЖК Новая Волна";"ул. Харьковское шоссе, 15а";50.4346599875;30.6347442625;https://img.lun.ua/building-1600x1200/2632.jpg
1025;"ЖК Куреневский";"ул. Рылеева, 25";50.48519695;30.462864274999998;https://img.lun.ua/building-1600x1200/4409.jpg
1045;"ЖК Royal Hills";"ул. Ольшанская, 2";50.41327357894737;30.55204347894737;
1046;"ЖК Виконт";"ул. Соляная, 70";50.46647278306191;30.49023410185222;https://img.lun.ua/building-1600x1200/4643.jpg
1048;"ЖК Zverinetskiy";"ул. Зверинецкая, 47";50.408204;30.554759400000002;https://img.lun.ua/building-1600x1200/4411.jpg
1049;;"ул. Дмитриевская, 66а";50.45313444444444;30.488834355555557;https://img.lun.ua/building-1600x1200/4110.jpg
1050;"ЖК Стародарницкий";"ул. Лохвицкая, 1-2";50.43345238869665;30.63470593254088;https://img.lun.ua/building-1600x1200/4430.jpg
1059;"ЖК Островского, 40";"ул. Патриарха Мстислава Скрыпныка (Островского), 40";50.4343604;30.4809712;https://img.lun.ua/building-1600x1200/4682.jpg
1060;"ЖК Тихорецкий";"ул. Тихорецкая, 30/7";50.40036569629862;30.496872772090114;https://img.lun.ua/building-1600x1200/3078.jpg
1066;"ЖК Славгородский";"ул. Славгородская, 25";50.420874418723;30.659715208122;https://img.lun.ua/building-1600x1200/3101.jpg
1071;;"ул. Радужная, 54";50.477249975;30.588944675;https://img.lun.ua/building-1600x1200/3105.jpg
1075;;"ул. Ахматовой, 34";50.408037292668325;30.621217457672106;https://img.lun.ua/building-1600x1200/3106.jpg
1080;"ЖК Арт Хаус";"ул. Лисичанская, 29";50.412302;30.495374999999967;https://img.lun.ua/building-1600x1200/3108.jpg
1082;"ЖК Відпочинок";"ул. Петрицкого, 13, 15, 15а, 17, 17а, 19, 19а, 21, 21а, 23, 23а";50.446330620000005;30.381231279999998;https://img.lun.ua/building-1600x1200/4672.jpg
1083;"ЖК Богатырский";"ул. Богатырская, 6а";50.51908420785687;30.484814832389137;https://img.lun.ua/building-1600x1200/3119.jpg
1108;;"ул. Саперно-Слободская, 92";50.402116705000005;30.537892845000005;https://img.lun.ua/building-1600x1200/4433.jpg
1109;"Клубный дом Gelios";"пер. Задорожного, 6а";50.395346700000005;30.50573515;https://img.lun.ua/building-1600x1200/4438.jpg
1110;"ЖК Respublika";"Большая Окружная дорога, 1";50.371061351383;30.451225356992;https://img.lun.ua/building-1600x1200/23711.png
1111;;"ул. Милославская, 8, 12";50.534076373139335;30.602369199805025;https://img.lun.ua/building-1600x1200/3130.jpg
1113;"ЖК Академика Глушкова, 92б";"просп. Академика Глушкова, 92б";50.37084795782005;30.463750082999468;https://img.lun.ua/building-1600x1200/4857.jpg
1115;;"ул. Лисковская, 7";50.523037510846;30.603152085096;https://img.lun.ua/building-1600x1200/3135.jpg
1116;"ЖК Воссоединения, 21в";"просп. Соборности (Воссоединения), 21в";50.439748607845424;30.609668882278452;https://img.lun.ua/building-1600x1200/19648.jpg
1117;;"ул. Ушинского, 14б";50.43321279806454;30.44805100864423;https://img.lun.ua/building-1600x1200/4657.jpg
1119;;"ул. Ревуцкого, 7в";50.420855425;30.64548025;https://img.lun.ua/building-1600x1200/3136.jpg
1121;"ЖК Лисовый";"ул. Генерала Матыкина, 16";50.301088275000005;30.573404599999996;https://img.lun.ua/building-1600x1200/28600.jpg
1122;"ЖК Яскравый";"ул. Семьи Кульженков (Петра Дегтяренко), 31а, 33, 35, ул. Петра Калнышевского (Майорова), 8";50.521186779802456;30.467031318694353;https://img.lun.ua/building-1600x1200/4990.jpg
1170;;"ул. Кирилловская (Фрунзе), 85/87а";50.479532325;30.478274225;https://img.lun.ua/building-1600x1200/4473.jpg
1171;;"ул. Малиновского, 8";50.50083118726944;30.49472720008699;https://img.lun.ua/building-1600x1200/4629.jpg
1172;"Місто Квітів. Парковий квартал";"ул. Тираспольская, 60";50.480236192834;30.412468034774;https://img.lun.ua/building-1600x1200/29527.jpg
1173;"Клубный дом «Малевича, 48»";"ул. Казимира Малевича (Боженко) / ул. Лабораторная";50.42334935;30.513492109999998;https://img.lun.ua/building-1600x1200/16877.jpg
1175;"ЖК Златоуст";"ул. Златоустовская, 47-49";50.45276589080093;30.486026552909834;https://img.lun.ua/building-1600x1200/3138.jpg
1195;"ЖК Венеция";"ул. Ломоносова / ул. Конева / ул. Вильямса";50.383380260272844;30.456631328015465;https://img.lun.ua/building-1600x1200/3141.jpg
1224;"ARCH House";"ул. Николая Пирогова / ул. Богдана Хмельницкого, 2/37б";50.4466084375;30.5056648875;https://img.lun.ua/building-1600x1200/3145.jpg
1225;"ЖК Озерные Зори";"ул. Шумського, 3г";50.42428944635923;30.604295796295187;https://img.lun.ua/building-1600x1200/3155.jpg
1226;"ЖК Юбилейный";"просп. Бажана, 8б";50.3923941664438;30.61247387545779;https://img.lun.ua/building-1600x1200/4477.jpg
1234;"ЖК Дом на Шулявке";"ул. Гарматная, 31а";50.44700041333333;30.434417;https://img.lun.ua/building-1600x1200/4491.jpg
1404;"КГ Лесной Эдем";"Брест-Литовское шоссе";50.45398;30.24866;https://img.lun.ua/building-1600x1200/4198.jpg
1669;"QDRO - terraced house";"ул. Февральская, 58";50.340867195863;30.55712018162;https://img.lun.ua/building-1600x1200/33225.jpg
1687;Воздвиженка;"ул. Гончарная, 12в, ул. Воздвиженская, 34а, 36";50.459858366041225;30.5118178841019;https://img.lun.ua/building-1600x1200/4207.jpg
1859;"ЖК Мозаика";"Стратегическое шоссе, 53";50.400820332;30.541860024000012;https://img.lun.ua/building-1600x1200/2638.jpg
1865;"ЖК Сырецкий Бояр";"ул. Рижская, 73а";50.47172169421793;30.434525001327508;https://img.lun.ua/building-1600x1200/4163.jpg
1871;"ЖК Дом на Кузьминской";"ул. Жамбила Жабаева, 22";50.468630475;30.42842075;https://img.lun.ua/building-1600x1200/2642.jpg
1888;"Клубный дом Chelsea Tower";"ул. Деловая (Димитрова), 2";50.430163075;30.520562400000003;https://img.lun.ua/building-1600x1200/4492.jpg
1889;"ЖК Royal House";"ул. Московская, 44-1";50.3845769;30.453688475;https://img.lun.ua/building-1600x1200/4498.jpg
1906;"ЖК Курортный";"Пуща-Водица, ул. Федора Максименко (Краснофлотская), 24а";50.531686267659;30.362303319265;https://img.lun.ua/building-1600x1200/4515.jpg
1922;"ЖК Новопечерский Двор";"ул. Драгомирова, 2а";50.41356656666667;30.544487633333333;https://img.lun.ua/building-1600x1200/4178.jpg
1923;"Клубный дом «Патриарх Холл»";"ул. Саксаганского, 80";50.440658673559355;30.5011482629925;https://img.lun.ua/building-1600x1200/27085.jpg
1925;"ЖК Solo Park";"ул. Генерала Шаповала (Механизаторов), 20";50.428400599950095;30.477774632608998;https://img.lun.ua/building-1600x1200/16433.jpg
1930;"ЖК Royal Tower";"ул. Саксаганского, 37к";50.435011477272724;30.512209854545457;https://img.lun.ua/building-1600x1200/17472.jpg
1933;"ЖК Садовый";"ул. Комбинатная, 25, 25а";50.461200138593;30.585201302604;https://img.lun.ua/building-1600x1200/4213.jpg
1936;"ЖК Энергия плюс";"ул. Юности, 8а";50.4658694;30.618942233333332;https://img.lun.ua/building-1600x1200/3178.png
1942;"ЖК Avenue 14-16";"бул. Дружбы Народов, 14-16";50.414275650497;30.539782472354;https://img.lun.ua/building-1600x1200/4518.jpg
1968;"ЖК Tetris Hall";"ул. Деловая (Димитрова) / ул. Анри Барбюса, 1/2";50.429234595753;30.519895423204;https://img.lun.ua/building-1600x1200/21036.jpg
1969;"ЖК Гранд";"ул. Маршала Малиновского, 4в";50.50495977692307;30.488652338461538;https://img.lun.ua/building-1600x1200/4523.jpg
1970;"ЖК Берестейский";"просп. Победы, 55";50.457592816025;30.422035384923;https://img.lun.ua/building-1600x1200/3185.jpg
1973;"ЖК Осенний";"ул. Осенняя, 38а";50.467038461171;30.347691575065255;https://img.lun.ua/building-1600x1200/4527.jpg
1975;"Таунхаус «Олегова Гора»";"пер. Лукьяновский, 11";50.46349485821902;30.499591240659356;https://img.lun.ua/building-1600x1200/15191.jpg
1983;"ЖК Taryan Towers";"ул. Иоанна Павла ІІ (Патриса Лумумбы), 12";50.41941651360367;30.533620613808527;https://img.lun.ua/building-1600x1200/35787.jpg
1987;"КГ Итальянский квартал";"ул. Редчинская, 2а";50.54055952941793;30.49446322694421;https://img.lun.ua/building-1600x1200/4701.jpg
2005;;"ул. Милославская, 2, 2б, 2в";50.53405250416665;30.60644140416667;https://img.lun.ua/building-1600x1200/4535.jpg
2045;"ЖК Совские пруды";"ул. Владимира Брожко (Кировоградская), 70";50.410906950000005;30.501159516666664;https://img.lun.ua/building-1600x1200/30602.jpg
2048;;"ул. Мартиросяна, 5";50.4270944;30.455635225;https://img.lun.ua/building-1600x1200/4539.jpg
2051;"ЖК Alter Ego";"пер. Лабораторный, 7";50.42771542222222;30.525991444444443;https://img.lun.ua/building-1600x1200/20599.jpg
2052;"ЖК Малахит";"ул. Богдановская, 7а";50.43534660860611;30.477665030630305;https://img.lun.ua/building-1600x1200/30052.png
2070;"ЖК Статус Град";"ул. Завальная, 10";50.39261423633426;30.615730483722153;https://img.lun.ua/building-1600x1200/4113.jpg
2071;"ЖК Власна квартира";"ул. Академика Вильямса, 6г, 8д, 8а, пер. Московский, 2ж";50.390573895317516;30.4624919090179;https://img.lun.ua/building-1600x1200/28606.jpg
2079;;"ул. Гарматная, 20";50.448978597501565;30.43281544510137;https://img.lun.ua/building-1600x1200/4286.jpg
2090;"ЖК Посольский";"ул. Жамбыла Жабаева, 7д";50.467464462633195;30.42961247619627;https://img.lun.ua/building-1600x1200/3192.jpg
2093;;"пер. Шишкинский";50.475438375;30.482352024999997;https://img.lun.ua/building-1600x1200/3196.jpg
2094;"ЖК Fresco Sofia";"ул. Олеся Гончара, 17-23";50.45352395;30.5107642;https://img.lun.ua/building-1600x1200/3197.jpg
2101;"ЖК Святобор";"ул. Верховинная, 28";50.454460854899;30.374691719522;https://img.lun.ua/building-1600x1200/26724.jpg
2107;;"ул. Анри Барбюса, 39/2";50.41988642283099;30.527409759999973;https://img.lun.ua/building-1600x1200/20186.jpg
2108;"ЖК Лукьяновский";"ул. Мельникова, 51б";50.465512976610526;30.47537893988192;https://img.lun.ua/building-1600x1200/4540.jpg
2114;;"Харьковское шоссе, 182";50.4082765053883;30.6721161018524;https://img.lun.ua/building-1600x1200/4659.jpg
2115;;"ул. Хорольская, 1а";50.433485241215;30.641066450626;https://img.lun.ua/building-1600x1200/4661.jpg
2125;"ЖК Зеленый остров-2";"ул. Авиаконструктора Игоря Сикорского, 4-6";50.46480763370902;30.429903015772084;https://img.lun.ua/building-1600x1200/3226.jpg
2129;"ЖК Андерсен";"ул. Сечевых Стрельцов (Артема), 84а";50.458855589061756;30.487561533227563;https://img.lun.ua/building-1600x1200/4542.jpg
2174;"ЖК Гарматная, 39 Г";"ул. Гарматная, 39г";50.44425351926317;30.432641477372098;https://img.lun.ua/building-1600x1200/4871.jpg
2178;"МФК Metropole";"ул. Большая Васильковская, 91-93";50.424267347135;30.518986243755;https://img.lun.ua/building-1600x1200/36718.jpg
2183;"ЖК Панорама";"ул. Майкопская, 1а";50.4035326651329;30.50143257714808;https://img.lun.ua/building-1600x1200/3227.jpg
2186;"ЖК Научный";"ул. Петропавловская, 40";50.483932443328;30.462195798754;https://img.lun.ua/building-1600x1200/2660.jpg
2193;;"ул. Драгоманова (стройплощадки 1, 2, 3)";50.40613999321811;30.638338608459417;https://img.lun.ua/building-1600x1200/30721.png
2195;;"ул. Урловская, 38а";50.411943038384;30.617976654321;https://img.lun.ua/building-1600x1200/3236.jpg
2199;"ЖК Парк-холл Горький";"ул. Антоновича (Горького), 131";50.41792090146082;30.52032566137693;https://img.lun.ua/building-1600x1200/4185.jpg
2222;"ЖК Обуховская, 135а";"ул. Обуховская, 135а";50.46587885130699;30.3253866098853;https://img.lun.ua/building-1600x1200/18442.jpg
2241;"ЖК Артемовский";"ул. Бакинская, 37в";50.48283776831019;30.451051035895944;https://img.lun.ua/building-1600x1200/4219.jpg
2252;"ЖК Подол Престиж";"ул. Нижний Вал";50.46699321755294;30.51260850392282;https://img.lun.ua/building-1600x1200/4554.jpg
2253;"ЖК Дом на Бестужева";"ул. Бестужева, 2г";50.515387083577174;30.44288800098002;https://img.lun.ua/building-1600x1200/4555.jpg
2254;"ЖК Столичный дом";"ул. Сечевых Стрельцов (Артема), 70";50.457642683333326;30.488665116666667;https://img.lun.ua/building-1600x1200/3238.jpg
2260;"КГ Крутогорный";"ул. Крутогорная, 13а";50.40959063205729;30.485515533734997;https://img.lun.ua/building-1600x1200/4560.jpg
2262;"ЖК Столичные каштаны";"ул. Якуба Коласа, 2б";50.433206748848086;30.37383796647191;https://img.lun.ua/building-1600x1200/4561.jpg
2264;"ЖК Французский квартал";"ул. Анри Барбюса, 52/1, 52/1а, ул. Филатова, 2/1";50.41758443497583;30.529442746192217;https://img.lun.ua/building-1600x1200/5076.jpg
2273;"ЖК Поэтичный";"ул. Здолбуновская, 13";50.417854541040704;30.625197452590278;https://img.lun.ua/building-1600x1200/3242.jpg
2294;;"ул. Евгена Маланюка (Сагайдака), 101";50.461867349725;30.581335499883;https://img.lun.ua/building-1600x1200/19444.jpg
2305;"ЖК Краснозвездный";"просп. Валерия Лобановского (Краснозвездный), 4";50.42123955294117;30.465092941176476;https://img.lun.ua/building-1600x1200/3247.jpg
2318;;"ул. Ахматовой, 22 (стройпл. 8а, Позняки-2)";50.40836457470204;30.624484949737543;https://img.lun.ua/building-1600x1200/3252.jpg
2320;"Клубный дом «Приозерный 24»";"ул. Дмитрия Яворницкого (Коллонтай), 24";50.4617592;30.3374066;https://img.lun.ua/building-1600x1200/4122.jpg
2321;;"ул. Григоренко, 12а (стройпл. 1, Позняки-2)";50.412870122349;30.622667518388;https://img.lun.ua/building-1600x1200/3255.jpg
2327;;"ул. Коперника, 7";50.459238558842486;30.484090009704232;https://img.lun.ua/building-1600x1200/5196.jpg
2328;;"ул. Феодосийская, 2 (е, ж, з, и)";50.40196723607536;30.53197489120066;https://img.lun.ua/building-1600x1200/4767.jpg
2329;;"ул. Радунская, 28-32";50.526474750000006;30.6024515;https://img.lun.ua/building-1600x1200/4667.jpg
2331;"ЖК Козацкий";"ул. Гарматная, 38";50.44263506199991;30.42876617051661;https://img.lun.ua/building-1600x1200/29082.jpg
2337;;"ул. Волынская / ул. Смелянская";50.424036313155;30.446134675294;https://img.lun.ua/building-1600x1200/3257.jpg
2351;"ЖК Академгородок";"ул. Академика Ефремова (Командарма Уборевича), 8а";50.465345512499994;30.352122850000004;https://img.lun.ua/building-1600x1200/4126.jpg
2355;"ЖК Старокиевский";"ул. Старокиевская, 10";50.45258434;30.473593639999997;https://img.lun.ua/building-1600x1200/4248.jpg
2367;"ЖК Кассиопея";"ул.  Евгена Маланюка (Сагайдака), 101а";50.459531686093;30.585441273819;https://img.lun.ua/building-1600x1200/4224.jpg
2393;"ЖК Лыбидь";"ул. Казимира Малевича (Боженко), 89";50.41848880617436;30.5174530708687;https://img.lun.ua/building-1600x1200/4565.jpg
2429;"ЖК Лидер";"ул. Андрющенко, 6г";50.4536035;30.48008135;https://img.lun.ua/building-1600x1200/4568.jpg
2437;"Клубный дом «Теремок»";"ул. Академика Вильямса, 2г";50.3908766511295;30.46370759791936;https://img.lun.ua/building-1600x1200/3258.jpg
2450;"ЖК Чемпион. Голосеево";"пер. Московский, 2е";50.390784346561034;30.461668828502297;https://img.lun.ua/building-1600x1200/15112.png
2475;"ЖК Оболонский бриз";"просп. Оболонский, 30а";50.515942846296;30.503181335515;https://img.lun.ua/building-1600x1200/3263.jpg
2478;;"просп. Отрадный, 4 (ул. Донца, 2а)";50.43581438235294;30.431310164705877;https://img.lun.ua/building-1600x1200/3266.jpg
2479;"ЖК Оболонь Тауэр";"просп. Оболонский, 54";50.526394867913126;30.499971440475424;https://img.lun.ua/building-1600x1200/3268.jpg
2480;"ЖК Минский";"ул. Попова, 3/5";50.500933752491;30.454981890492;https://img.lun.ua/building-1600x1200/4287.jpg
2486;"ЖК Сказка";"ул. Лебедева, 1";50.35151123819916;30.48739562488413;https://img.lun.ua/building-1600x1200/4794.jpg
2526;"ЖК Британский квартал";"ул. Дмитрия Луценко, 10";50.385737984907024;30.44688084255995;https://img.lun.ua/building-1600x1200/4575.jpg
2537;;"ул. Николая Лебедева, 14";50.457445199999995;30.627848125;https://img.lun.ua/building-1600x1200/3282.jpg
2538;"ЖК Златоустовская 14-18";"ул. Златоустовская, 14-18";50.44959138;30.489505270000002;https://img.lun.ua/building-1600x1200/3287.jpg
2539;;"ул. Красноткацкая, 2";50.45496639398906;30.629481011639264;https://img.lun.ua/building-1600x1200/3292.jpg
2540;;"ул. Гната Хоткевича (Красногвардейская), 8";50.456886350000005;30.6314778;https://img.lun.ua/building-1600x1200/3294.jpg
2549;"ЖК Перспектива";"ул. Теодора Драйзера, 40";50.515065796053456;30.59438270898437;https://img.lun.ua/building-1600x1200/2668.jpg
2552;"ЖК Авангард";"просп. Голосеевский, 95";50.38336209388489;30.48554534327525;https://img.lun.ua/building-1600x1200/4166.jpg
2553;"ЖК Микитская Слобода";"ул. Героев Севастополя, 35а";50.43329388820591;30.422885427251458;https://img.lun.ua/building-1600x1200/4939.jpg
2578;;"ул. Подвысоцкого, 4в";50.41116530744599;30.543031711131334;https://img.lun.ua/building-1600x1200/3295.jpg
2580;;"ул. Теремковская, 3";50.37141530801091;30.455398461778827;https://img.lun.ua/building-1600x1200/4133.jpg
2581;"ЖК Silver House";"просп. Голосеевский, 74";50.398054801318;30.508750578705;https://img.lun.ua/building-1600x1200/17060.jpg
2583;"ЖК Nobel Homes";"ул. Гоголевская, 14";50.450231887529085;30.497071305289865;https://img.lun.ua/building-1600x1200/4227.jpg
2610;;"ул. Елизаветы Чавдар, 13";50.39138801666667;30.625501916666668;https://img.lun.ua/building-1600x1200/25358.png
2620;"Цитадель «Теремки»";"ул. Академика Вильямса, 10, 10а";50.38951514546069;30.462398679853923;https://img.lun.ua/building-1600x1200/3304.jpg
2623;"ЖК Бруклин";"ул. Ямская, 52";50.42207452829985;30.513008991256356;https://img.lun.ua/building-1600x1200/3306.jpg
2628;"ЖК Stoletof";"ул. Столетова, 56";50.39846549;30.54066868;https://img.lun.ua/building-1600x1200/18430.jpg
2639;"ЖК Южный квартал";"ул. Семьи Стешенко (Тимофея Строкача), 9";50.43438475;30.397773824999998;https://img.lun.ua/building-1600x1200/2675.jpg
2659;"ЖК Obolon Residences";"просп. Оболонский, 26";50.51312194924608;30.500035529424036;https://img.lun.ua/building-1600x1200/22025.jpg
2665;"ЖК Concept Holl";"пер. Московский, 2и, 2к";50.39061138773858;30.462010235392622;https://img.lun.ua/building-1600x1200/3353.jpg
2702;"ЖК Panorama city (Демеевский квартал)";"ул. Ракетная, 24";50.381845133773;30.540431477129;https://img.lun.ua/building-1600x1200/2679.jpg
2721;"ЖК Дом на Клименко";"ул. Клименко, 8б";50.424332796278286;30.47249690629542;https://img.lun.ua/building-1600x1200/4593.jpg
2780;"ЖК Квартет";"ул. Липковского, 16а";50.43570281240081;30.487042386084795;https://img.lun.ua/building-1600x1200/5145.jpg
2781;"ЖК Хоффманн Хаус";"ул. Златоустовская / ул. Павловская";50.45185826742273;30.48721557054421;https://img.lun.ua/building-1600x1200/4602.jpg
2784;"ЖК Шевченковский";"ул. Златоустовская, 27";50.45052564215005;30.487035999872855;https://img.lun.ua/building-1600x1200/25765.jpg
2801;"ЖК Герцен Парк";"ул. Герцена, 32";50.472676715998695;30.46267183497548;https://img.lun.ua/building-1600x1200/5354.jpg
2802;"ЖК Обериг";"ул. Бориспольская, 21-45";50.4221570431968;30.704365445833123;https://img.lun.ua/building-1600x1200/4809.jpg
2803;"ЖК Аристократ";"ул. Евгения Коновальца (Щорса), 34";50.4272378375;30.53263164375;https://img.lun.ua/building-1600x1200/4916.jpg
2815;"ЖК Александрия";"ул. Патриарха Мстислава Скрыпныка (Николая Островского), 48/50";50.43390211107586;30.478597590699792;https://img.lun.ua/building-1600x1200/3359.jpg
2821;"ЖК Дом на Пожарского";"ул. Пожарского";50.51505475;30.59173825;https://img.lun.ua/building-1600x1200/3363.jpg
2824;"ЖК Комфорт Сити";"ул. Полевая, 63-65";50.437338170025;30.446711489931;https://img.lun.ua/building-1600x1200/21135.jpg
2827;"ЖД Ушакова, 1д";"ул. Николая Ушакова, 1д";50.459944159269;30.337509373206;https://img.lun.ua/building-1600x1200/18373.jpg
2828;"ЖК Позняки-4а";"Позняки-4а, ул. Драгоманова, 2а, 2б, 4а, ул. Елены Пчелки, 6а, 8";50.41775419583314;30.633269269019365;https://img.lun.ua/building-1600x1200/19651.jpg
2834;"ЖК Освіти 16";"ул. Просвещения, 16, 16а";50.424044649163896;30.467063711639394;https://img.lun.ua/building-1600x1200/4978.png
2836;"ЖК Бонапарт";"ул. Щекавицкая, 53";50.472830825;30.5158801;https://img.lun.ua/building-1600x1200/4609.jpg
2837;"ЖК Skyline";"ул. Евгения Коновальца (Щорса), 26а";50.427678602081976;30.530506645514834;https://img.lun.ua/building-1600x1200/5466.jpg
2839;;"просп. Науки, 55а";50.37946853749328;30.535843048934954;https://img.lun.ua/building-1600x1200/3371.jpg
2840;;"ул. Булгакова, 13";50.41099036157;30.406298453602;https://img.lun.ua/building-1600x1200/3373.jpg
2841;"ЖК Демеевка";"ул. Демеевская, 14";50.40383506819142;30.511273304000497;https://img.lun.ua/building-1600x1200/5227.jpg
2843;"ЖК Gloria Park";"просп. Победы, 90/1";50.4593661514211;30.400547990575433;https://img.lun.ua/building-1600x1200/4801.jpg
2846;"ЖК Геометрия";"ул. Отто Шмидта, 9-11";50.469262045049;30.490327383787;https://img.lun.ua/building-1600x1200/29701.jpg
2847;;"ул. Тургеневская, 46/11";50.452417525453;30.49205342151;https://img.lun.ua/building-1600x1200/3382.jpg
2858;;"ул. Володи Дубинина, 5/15, 7/14";50.39207084617524;30.49587668851018;https://img.lun.ua/building-1600x1200/4872.jpg
2859;;"ул. Гмыри, 17";50.39193706741;30.634918656415;https://img.lun.ua/building-1600x1200/3388.jpg
2868;;"пер. Тбилисский, 1/26 (ул. Шулявская, 32)";50.45375972803;30.465654049097;https://img.lun.ua/building-1600x1200/3390.jpg
2877;"Клубный дом «Цитадель»";"ул. Вавиловых, 3";50.47460015;30.436753725;https://img.lun.ua/building-1600x1200/3395.jpg
2878;"ЖК Паркова Вежа";"ул. Краснопольская, 2г";50.510860792452235;30.444826567545533;https://img.lun.ua/building-1600x1200/3399.jpg
2882;;"ул. Михаила Максимовича (Трутенко), 9";50.39047712857143;30.474644557142856;https://img.lun.ua/building-1600x1200/3412.jpg
2885;"ЖК SOHO residence";"ул. Демеевская, 13";50.403814745056245;30.513406852288426;https://img.lun.ua/building-1600x1200/4822.jpg
2887;"ЖК Заречный";"ул. Заречная, 1б, 1в, 1г, ул. Николая Бажана, 1а";50.39668321542631;30.600478369742632;https://img.lun.ua/building-1600x1200/32954.jpg
2888;"Таунхаусы «Royal Hill»";"пер. Докучаевский, 8";50.42568319551928;30.499682423466993;https://img.lun.ua/building-1600x1200/3414.jpg
2897;"ЖК Champion City (Демеевский квартал)";"ул. Ракетная, 24";50.382817882791;30.54330167605;https://img.lun.ua/building-1600x1200/2680.png
2900;"ЖК Метрополия Дарница";"ул. Сормовская, 3";50.427837317338;30.647552139602;https://img.lun.ua/building-1600x1200/29791.jpg
2902;;"просп. Валерия Лобановского (Краснозвездный), 15/7";50.42368514647417;30.465252259746194;https://img.lun.ua/building-1600x1200/4669.jpg
2906;"ЖК Амурский (Lemonade)";"ул. Михаила Максимовича (Трутенко), 3";50.390334484615394;30.476952438461538;https://img.lun.ua/building-1600x1200/5130.jpg
2923;;"ул. Донца, 2б (просп. Отрадный, 4а)";50.43681036859512;30.42983273068853;https://img.lun.ua/building-1600x1200/3420.jpg
2924;;"ул. Урловская, 23г (стройпл.19, дом 5, Позняки-3)";50.40878600909091;30.612347663636363;https://img.lun.ua/building-1600x1200/3421.jpg
2929;"ЖК Подол Градъ";"ул. Дегтярная, 7, 8, 9-11, 10, 13-15, 17-21, 25, 29, 31, 32 ул. Кожемяцкая, 10ж";50.45934629677212;30.51013031040179;https://img.lun.ua/building-1600x1200/18298.jpg
2953;;"ул. Евгения Коновальца (Щорса), 36е";50.42394040842601;30.534669113781774;https://img.lun.ua/building-1600x1200/3422.jpg
2956;"КГ Кришталеві джерела";"ул. Метрологическая";50.35054696087536;30.477574417811567;https://img.lun.ua/building-1600x1200/4231.jpg
2957;"ЖК Geneva";"бул. Вацлава Гавела (Ивана Лепсе), 9а";50.44589858333333;30.425470649999998;https://img.lun.ua/building-1600x1200/4805.jpg
2959;"ЖК Лесная сказка";"ул. Радистов, 32";50.47616324639193;30.67115911366909;https://img.lun.ua/building-1600x1200/5730.jpg
2970;"ЖК Шевченковский квартал";"ул. Украинская, 6 / ул. Новоукраинская, 24а";50.46999848;30.43153874;https://img.lun.ua/building-1600x1200/2688.jpg
2971;"ЖК Маргарита";"ул. Булгакова, 12а";50.4104869889;30.40746675;https://img.lun.ua/building-1600x1200/2691.jpg
2976;"ЖК Новопечерська Вежа";"ул. Бойчука (Киквидзе), 41";50.4049155854;30.55332578237;https://img.lun.ua/building-1600x1200/5519.jpg
2977;"ЖМ Патриотика";"ул. Бориса Гмыри, ул. Коллекторная";50.391958049599;30.627967312932;https://img.lun.ua/building-1600x1200/4770.jpg
2981;"ЖК Енисейская усадьба";"ул. Писаржевского, 8, ул. Иртышская, 20";50.395759374034796;30.535964766568554;https://img.lun.ua/building-1600x1200/17592.jpg
2982;"Клубный дом «InCo Home на Подоле»";"ул. Лукьяновская, 14а";50.46504479798783;30.505307986001885;https://img.lun.ua/building-1600x1200/4170.jpg
2984;"ЖК Традиция";"ул. Елены Пчелки, 3, 5а";50.415446713688816;30.629864030926797;https://img.lun.ua/building-1600x1200/30426.jpg
2985;;"ул. Старонаводницкая / ул. Генерала Алмазова (Кутузова)";50.42851358;30.543688929999995;
2997;"ЖК Lego House";"ул. Сивашская, 12/2";50.433420675;30.640279624999998;https://img.lun.ua/building-1600x1200/2693.jpg
3001;;"ул. Ивана Франко, 11";50.44890276337846;30.510330805554986;https://img.lun.ua/building-1600x1200/3438.jpg
3003;"ЖК Жуляны";"ул. Добробутная, 1";50.385572502488;30.439848910974;https://img.lun.ua/building-1600x1200/3439.jpg
3004;"ЖК Кузьминский 2";"ул. Магистральная";50.46911504327148;30.426131347194314;https://img.lun.ua/building-1600x1200/27818.jpg
3005;"ЖК Солнечная Ривьера";"ул. Никольско-Слободская, 1";50.450299783617;30.586288656068;https://img.lun.ua/building-1600x1200/25741.jpg
3013;;"ул. Крушельницкой, 13, 15, 15а, 15б, 15в";50.39149723070521;30.64867672698364;https://img.lun.ua/building-1600x1200/3443.jpg
3015;;"ул. Макаренка, 1а";50.447748591666674;30.673120379166672;https://img.lun.ua/building-1600x1200/3452.jpg
3016;"ЖК Артемида";"бул. Дарницкий, 8б, 8в";50.464861960494005;30.609523152932525;https://img.lun.ua/building-1600x1200/4134.jpg
3019;;"ул. Верховинная, 39-41";50.45228995000001;30.369678725000004;https://img.lun.ua/building-1600x1200/3454.jpg
3021;"ЖК Liberty Estate";"пер. Лукьяновский, 3";50.463791658438;30.501511590559;https://img.lun.ua/building-1600x1200/16909.jpg
3027;"ЖК LAKE HOUSE";"ул. Маршала Малиновского, 2а";50.504525175572;30.488132843748;https://img.lun.ua/building-1600x1200/32725.jpg
3028;"ЖК Гармония";"ул. Стуса, 7";50.459473729379;30.36612988449633;https://img.lun.ua/building-1600x1200/20656.jpg
3030;"ЖК Renaissance Residence";"ул. Новоселицкая, 7, 9, 10, ул. Добролюбова, 4";50.40882430629014;30.555632511153817;https://img.lun.ua/building-1600x1200/4260.jpg
3032;;"пер. Моторный, 11";50.37833478228433;30.540408389642835;https://img.lun.ua/building-1600x1200/20034.jpg
3033;;"ул. Казимира Малевича (Боженко), 75-77";50.42183831824;30.516194272786;https://img.lun.ua/building-1600x1200/23807.jpg
3035;"ЖК Garden City Residence";"ул. Златоустовская, 30а";50.45072278195511;30.488288986629673;https://img.lun.ua/building-1600x1200/4843.jpg
3042;"ЖК Академ Парк";"бул. Академика Вернадского, 24";50.46209731416559;30.37528635935587;https://img.lun.ua/building-1600x1200/32555.jpg
3049;"Таунхаус «Городской дом»";"ул. Профессора Буйко, 28";50.400845135356775;30.505892168730497;https://img.lun.ua/building-1600x1200/3464.jpg
3060;;"просп. Комарова, 20а";50.439622299999996;30.423406075000003;https://img.lun.ua/building-1600x1200/3467.jpg
3067;"Клубный дом «Чорногория»";"ул. Черногорская, 14";50.40948572319702;30.53560391999781;https://img.lun.ua/building-1600x1200/3469.jpg
3069;;"ул. Метрологическая, 18";50.341040354817665;30.475714824474895;https://img.lun.ua/building-1600x1200/4239.jpg
3073;"ЖК Pechersk Hills Residence";"пер. Мичурина, 28-32";50.422600185521;30.558930555359;https://img.lun.ua/building-1600x1200/3480.jpg
3079;"ЖК Владимирский";"ул. Антоновича (Горького), 109";50.42287087246787;30.51714546047151;https://img.lun.ua/building-1600x1200/32634.jpg
3082;;"ул. Гоголевская, 43";50.45463767644189;30.493804374709725;https://img.lun.ua/building-1600x1200/4139.jpg
3089;"ЖК Нивки-Парк";"просп. Победы, 67";50.456352364288;30.407886106525;https://img.lun.ua/building-1600x1200/5118.jpg
3092;"ЖК 52 Жемчужина (Pechersk Plaza)";"ул. Бойчука (Киквидзе), 17";50.412854535915;30.550633565423;https://img.lun.ua/building-1600x1200/32386.jpg
3115;"ЖК Вильямс Авеню";"ул. Академика Вильямса, 2в";50.39056603115483;30.46381906606257;https://img.lun.ua/building-1600x1200/3492.jpg
3128;;"бул. Чоколовский, 27б";50.43519028992867;30.4522711224854;https://img.lun.ua/building-1600x1200/4880.jpg
3133;;"просп. Космонавта Комарова, 46";50.43517149563035;30.405361969023943;https://img.lun.ua/building-1600x1200/4613.jpg
3136;;"ул. Редутная, 67";50.42716349951045;30.55944655600797;https://img.lun.ua/building-1600x1200/3496.jpg
3137;;"ул. Данила Щербакивского (Щербакова), 16";50.462238;30.406275;https://img.lun.ua/building-1600x1200/4146.jpg
3140;"ЖК Соломенская, 20А";"ул. Соломенская, 20а";50.42289992280402;30.47899411059916;https://img.lun.ua/building-1600x1200/5396.jpg
3150;;"ул. Межевая, 23б";50.50927235;30.4331763;https://img.lun.ua/building-1600x1200/3498.jpg
3151;"ЖК Elyseum";"ул. Маршала Рыбалко, 3а";50.454348230974965;30.48030357884727;https://img.lun.ua/building-1600x1200/3499.jpg
3157;"ЖК Aston Park";"ул. Соломенская, 17а";50.42429248333334;30.479584474999996;https://img.lun.ua/building-1600x1200/15434.jpg
3163;"ЖК L-квартал";"бул. Вацлава Гавела (Ивана Лепсе), 6ж";50.44759599910473;30.421015340834856;https://img.lun.ua/building-1600x1200/5254.jpg
3169;"ЖК SOLAR CITY";"пл. Святошинская, 1";50.458494858897;30.3632988967;https://img.lun.ua/building-1600x1200/27157.jpg
3183;;"просп. Науки, 58/1";50.380350678105;30.533152961279;https://img.lun.ua/building-1600x1200/3507.jpg
3199;"ЖК Skyland";"пер. Московский, 2а, 2б";50.390832224814;30.460972795263;https://img.lun.ua/building-1600x1200/4614.jpg
3201;"ЖК ObolonSky";"просп. Оболонский, 1";50.499860474593;30.497423383293;https://img.lun.ua/building-1600x1200/16864.jpg
3203;"ЖК Саксаганский";"ул. Саксаганского, 70а";50.43969863437917;30.502862194553018;https://img.lun.ua/building-1600x1200/3509.jpg
3208;;"ул. Толбухина, 43а, 43б";50.46706492377955;30.41924969293177;https://img.lun.ua/building-1600x1200/17438.jpg
3211;;"ул. Трахтемировская, 13/1";50.37094205984351;30.539058605208993;https://img.lun.ua/building-1600x1200/3532.jpg
3215;"КГ Sunlife";"ул. Павла Потоцкого (Комсомольская), 106";50.394869;30.447028000000046;https://img.lun.ua/building-1600x1200/3535.jpg
3216;"ЖК Голосеевский квартал";"ул. Академика Вильямса, 8в";50.390114862123;30.462862411518;https://img.lun.ua/building-1600x1200/4240.jpg
3222;"ЖК Наш будинок";"просп. Победы, 71а";50.4570924156708;30.401254109655724;https://img.lun.ua/building-1600x1200/4619.jpg
3228;"ЖК Новомостицкий";"ул. Новомостицкая, 15";50.49930793522;30.442204037682;https://img.lun.ua/building-1600x1200/5156.jpg
3242;"Клубный дом New York";"ул. Редутная, 60";50.426817361289;30.55789227742;https://img.lun.ua/building-1600x1200/3555.jpg
3252;"ЖК Милославский";"ул. Милославская, 31в";50.53169538333333;30.606507466666667;https://img.lun.ua/building-1600x1200/2695.jpg
3292;"ЖК Стиль";"ул. Анри Барбюса, 5б";50.42777339292229;30.522294798865914;https://img.lun.ua/building-1600x1200/3562.jpg
3338;;"ул. Сечевых Стрельцов (Артема), 82";50.458077780393005;30.488160252571106;https://img.lun.ua/building-1600x1200/3568.jpg
3339;"ЖК Защитник";"ул. Бориспольская, 19";50.423680118586;30.697568827429;https://img.lun.ua/building-1600x1200/15529.jpg
3342;;"ул. Белицкая, 108а";50.49134985892;30.426082890897;https://img.lun.ua/building-1600x1200/3571.jpg
3361;"ЖК Edelweiss House";"ул. Зверинецкая, 72";50.404866999693;30.553594134351;https://img.lun.ua/building-1600x1200/28668.jpg
3381;"ЖК Сырецкий парк";"ул. Ясногорская, 16а";50.481417590283;30.438880193979;https://img.lun.ua/building-1600x1200/26100.jpg
3382;"ЖК Goloseev Hills";"ул. Казацкая, 55а";50.402959954595;30.502213099971;https://img.lun.ua/building-1600x1200/36741.jpg
3384;"ЖК Домино";"ул. Фанерная, 5";50.43002734;30.633839010000003;https://img.lun.ua/building-1600x1200/3588.jpg
3390;;"ул. Иоанна Павла ІІ (Патриса Лумумбы), 11";50.42087827759916;30.532597163692117;https://img.lun.ua/building-1600x1200/5627.jpg
3394;"ЖК Метрополия";"ул. Каменская (Днепродзержинская), 128-130";50.40504664193141;30.66978625394404;https://img.lun.ua/building-1600x1200/24388.jpg
3400;"ЖК Автограф";"ул. Генерала Жмаченко, 28";50.47012353809;30.61091412368;https://img.lun.ua/building-1600x1200/31267.jpg
3403;"ЖК Busov Hill";"ул. Бусловская, 12";50.40753921754;30.55683012659;https://img.lun.ua/building-1600x1200/35306.jpg
3404;"ЖК UNO City House";"ул. Елены Телиги, 25";50.47573455;30.448303974999998;https://img.lun.ua/building-1600x1200/36708.png
3454;"Клубный дом «Гоголевская, 47»";"ул. Гоголевская, 47";50.455168779392984;30.494028339116312;https://img.lun.ua/building-1600x1200/18737.jpg
3486;"ЖК PARKLAND";"ул. Практичная, 1";50.39588803616243;30.46912243589759;https://img.lun.ua/building-1600x1200/30069.jpg
3494;"ЖК Львовский квартал";"ул. Глубочицкая, 13";50.462275010303;30.488508497836;https://img.lun.ua/building-1600x1200/20073.jpg
3496;"ЖК Рубин";"пер. Любарский, 2а";50.4197759;30.62273735;
3501;"ЖК Кристер Град";"ул. Межевая / просп. Правды / ул. Маршала Гречко";50.49809084760124;30.427696104519644;https://img.lun.ua/building-1600x1200/11547.jpg
3512;"КГ Riverside Family Club";"ул. Днепровская";50.34184522216258;30.615509189665318;https://img.lun.ua/building-1600x1200/3618.jpg
3523;"ЖК Rainbow House";"ул. Радужная, 44";50.478306053988916;30.58889807201922;https://img.lun.ua/building-1600x1200/3627.jpg
3526;;"Андреевский спуск, 30-34в";50.45953093284637;30.51669971086085;https://img.lun.ua/building-1600x1200/3631.jpg
3534;"ЖК Верховина";"просп. Победы, 109";50.45587818333333;30.3735583;https://img.lun.ua/building-1600x1200/18953.jpg
3538;"ЖК Новомостицко-Замковецкий";"ул. Замковецкая, ул. Новомостицкая";50.4967510134489;30.43985597878668;https://img.lun.ua/building-1600x1200/21390.jpg
3539;"ЖК Ярославов Град";"ул. Бульварно-Кудрявская (Воровского), 15а";50.45226984265292;30.503045534715056;https://img.lun.ua/building-1600x1200/21000.jpg
3540;"ЖК Эврика";"ул. Академика Глушкова, 6";50.381815742788;30.466757672101;https://img.lun.ua/building-1600x1200/5046.jpg
3550;"ЖК Jack House";"бул. Леси Украинки, 7-9, ул. Первомайского, 8";50.43412419999999;30.532052816666663;https://img.lun.ua/building-1600x1200/28070.jpg
3557;"ЖК Лейпцигская";"ул. Лейпцигская, 13";50.431240683333336;30.549335600000003;https://img.lun.ua/building-1600x1200/5134.jpg
3595;"ЖК Фортеця";"ул. Красицкого, 58";50.520598922863115;30.436006793752313;https://img.lun.ua/building-1600x1200/3635.jpg
3642;"ЖК Sherwood";"ул. Авиаконструктора Антонова, 4а";50.430273120541;30.463534784607;https://img.lun.ua/building-1600x1200/3641.jpg
3707;"ЖК Дом на Строителей";"ул. Строителей, 30";50.45143258020088;30.614051828160882;https://img.lun.ua/building-1600x1200/3662.jpg
3918;"ЖК Delmar";"ул. Драгомирова, 4б";50.41172937865775;30.54467380978167;https://img.lun.ua/building-1600x1200/21734.jpg
3961;"ЖК Волгоградский";"ул. Волгоградская, 25а";50.424384390121;30.493624797573;https://img.lun.ua/building-1600x1200/3663.jpg
3967;"ЖК Ярославский на Подоле";"пер. Ярославский, 1/3";50.46637212499999;30.508018625;https://img.lun.ua/building-1600x1200/3671.jpg
3978;"Loft House Podol";"ул. Межигорская, 78";50.475377268869;30.502718312409;https://img.lun.ua/building-1600x1200/3672.jpg
3979;"ЖК Голосеевские сады";"ул. Академика Кащенко, 113";50.37196217038303;30.53330759702476;https://img.lun.ua/building-1600x1200/15655.jpg
3987;"ЖК Эко Таун";"ул. Стеценко, 30";50.49617113126809;30.373476454988122;https://img.lun.ua/building-1600x1200/3681.jpg
3988;"ЖК Воздухофлотский квартал";"ул. Шолуденко, 1а";50.451135596481;30.476372650425;https://img.lun.ua/building-1600x1200/5365.jpg
3989;"ЖК Французский квартал 2";"ул. Большая Васильковская, 139";50.415231556333175;30.525509733706713;https://img.lun.ua/building-1600x1200/31000.jpg
3990;"ЖК Victory V";"просп. Победы, 5Б";50.44638775297;30.48688963987;https://img.lun.ua/building-1600x1200/20258.jpg
3992;;"ул. Краковская, 27а";50.45765343507155;30.63081027008593;https://img.lun.ua/building-1600x1200/25412.jpg
3993;"Варшавский Микрорайон";"просп. Правды / ул. Маршала Гречко";50.50133149239744;30.425260236625036;https://img.lun.ua/building-1600x1200/20516.jpg
4007;"Клубный дом «На Левадной»";"Бортничи, ул. Левадная, 56";50.363527935311;30.675842631608;https://img.lun.ua/building-1600x1200/3686.jpg
4028;"ЖК Прибалтийский";"ул. Рижская, 19а";50.472229326243;30.438733451439;https://img.lun.ua/building-1600x1200/3690.jpg
4029;"ул. Армянская, 6";"ул. Армянская, 6а";50.405908075;30.670834775;https://img.lun.ua/building-1600x1200/5379.jpg
4038;"ЖК Космополитен";"ул. Дегтяревская, 25а";50.4617639;30.45220127368421;https://img.lun.ua/building-1600x1200/3692.jpg
4044;"ЖК Метрополис";"ул. Академика Заболотного, 1";50.371045064734;30.461063708063;https://img.lun.ua/building-1600x1200/20208.jpg
4058;"ЖК Галактика";"ул. Евгения Сверстюка (Марины Расковой), 4";50.447278592247;30.601753843348;https://img.lun.ua/building-1600x1200/31797.jpg
4062;"ЖК Signature";"ул. Мечникова, 11а";50.43866938726727;30.53553552366793;https://img.lun.ua/building-1600x1200/33520.jpg
4078;"ЖК Троицкий";"пер. Армянский, 17";50.410763625083;30.674203047529;https://img.lun.ua/building-1600x1200/3705.jpg
4126;;"просп. Отрадный, 2 (просп. Комарова, 1)";50.43635157999999;30.434336860000002;https://img.lun.ua/building-1600x1200/3729.jpg
4130;;"ул. Петра Калнышевского (Майорова), 6";50.523702557470756;30.46727598644793;https://img.lun.ua/building-1600x1200/3730.jpg
4151;"ЖК Харьковский";"Харьковское шоссе, 210";50.40661585714285;30.674647200000003;https://img.lun.ua/building-1600x1200/23661.jpg
4193;"ЖК Bergen";"ул. Полковника Потехина, 9";50.37981205;30.491439233333335;https://img.lun.ua/building-1600x1200/3733.jpg
4197;"ЖК Славутич";"ул. Заречная, 16";50.394866804165;30.603991471739;https://img.lun.ua/building-1600x1200/30998.jpg
4202;"ЖК Люксембургский";"ул. Гаврилюка, 77";50.41354289173214;30.485483407974243;https://img.lun.ua/building-1600x1200/3736.jpg
4203;"ЖК Вышиванка";"ул. Приорская (Полупанова), 16";50.50873074916875;30.456569949164987;https://img.lun.ua/building-1600x1200/4827.jpg
4219;"ЖК Adamant";"ул. Липковского, 35";50.431811001609;30.477397782242;https://img.lun.ua/building-1600x1200/24359.jpg
4222;"ЖК Парковая Долина";"ул. Паисия Кайсарова, 7/9";50.397693825;30.48486281;https://img.lun.ua/building-1600x1200/30910.jpg
4225;;"ул. Милославская, 18";50.53334554544085;30.597174782305956;https://img.lun.ua/building-1600x1200/3742.jpg
4226;;"пер. Платоновский, 6";50.436925173324454;30.48519984818995;https://img.lun.ua/building-1600x1200/20035.jpg
4242;"ЖК 4U";"ул. Академика Булаховского, 2 (ул. Генерала Наумова / просп. Академика Палладина)";50.473723545366;30.354676909841;https://img.lun.ua/building-1600x1200/26071.jpg
4250;;"ул. Андрея Аболмасова (Панельная), 2";50.4599962394945;30.585645893588662;https://img.lun.ua/building-1600x1200/4870.jpg
4251;"ЖК Драгоманова";"ул. Драгоманова, 35";50.40673288580869;30.636774161830544;https://img.lun.ua/building-1600x1200/4856.jpg
4257;"ЖК Ривьера";"ул. Малоземельная, 75";50.392255660259;30.602272387477;https://img.lun.ua/building-1600x1200/4174.jpg
4261;"ЖК Smart House";"ул. Машиностроительная, 39";50.44931352121243;30.42180005457294;https://img.lun.ua/building-1600x1200/5675.jpg
4263;;"ул. Горловская, 215а, 215б, 215в";50.407336321735436;30.67306788638234;https://img.lun.ua/building-1600x1200/4915.jpg
4305;"ЖК Выгуровщина-20";"ул. Николая Закревского, 101, 101а, 101б";50.532274865505;30.623433608562;https://img.lun.ua/building-1600x1200/27285.jpg
4315;"ЖК New York Concept House";"ул. Антоновича (Горького), 74-78";50.426126275;30.5139883;https://img.lun.ua/building-1600x1200/28171.jpg
4319;"ЖК Campus";"ул. Полевая, 38";50.441510219174276;30.44909270480275;https://img.lun.ua/building-1600x1200/35681.jpg
4320;"ЖК Sundance";"ул. Никольско-Слободская, 7-9";50.456672393143556;30.583913940936327;https://img.lun.ua/building-1600x1200/3754.jpg
4322;"ЖК Голосеевский дворик";"ул. Володи Дубинина, 2а";50.39024254444444;30.497313533333333;https://img.lun.ua/building-1600x1200/4883.jpg
4368;;"ул. Семьи Сосниных, 4а";50.42437493333333;30.3936468;https://img.lun.ua/building-1600x1200/31604.jpg
4369;;"ул. Старонаводницкая, 2-20";50.42635061836734;30.545225610204085;https://img.lun.ua/building-1600x1200/3771.jpg
4370;"ЖК West House";"ул. Кустанайская, 13";50.406096743096;30.510913853512;https://img.lun.ua/building-1600x1200/20476.jpg
4398;"ЖК Skyland 2";"ул. Сергея Колоса (Ленина), 2а, 2б";50.39195097861306;30.458929432152217;https://img.lun.ua/building-1600x1200/4156.jpg
4400;"ЖК Камертон";"ул. Речная, 4";50.454059131971;30.487397479878;https://img.lun.ua/building-1600x1200/24453.jpg
4402;"ЖК Bristol Comfort House";"просп. Валерия Лобановского (Краснозвездный), 146-б";50.407077471184;30.506754136231;https://img.lun.ua/building-1600x1200/20736.jpg
4410;"ЖК Кирилловский Гай";"ул. Багговутовская, 1а";50.47444288063282;30.468349322668473;https://img.lun.ua/building-1600x1200/29063.jpg
4414;"ЖК Новопечерский Квартал №5";"пер. Новопечерский, 5";50.423567416922;30.529805951776;https://img.lun.ua/building-1600x1200/23920.jpg
4421;"ЖК Гвардейский";"ул. Генерала Алмазова (Кутузова), 18/7";50.42609970833334;30.536355525;https://img.lun.ua/building-1600x1200/25469.jpg
4424;"ЖК Пектораль";"бул. Кольцова, 7а";50.4190307125;30.385875462500003;https://img.lun.ua/building-1600x1200/24694.jpg
4440;"ЖК KyivSky";"ул. Семьи Кульженков (Петра Дегтяренко), 22";50.515712090937;30.467910619759;https://img.lun.ua/building-1600x1200/31237.jpg
4444;"ЖК Маєток «Желань»";"ул. Трублаини, 18";50.408087187907;30.410930779763;https://img.lun.ua/building-1600x1200/3779.jpg
4446;"ЖК Teleskop";"ул. Драгоманова, 10";50.414108007015;30.63626626741;https://img.lun.ua/building-1600x1200/28511.jpg
4461;"ЖК LIKO-GRAD Perfect Town";"ул. Михаила Максимовича (Онуфрия Трутенко), 32";50.391699943776;30.466794044913;
4464;"ЖК Династия";"ул. Липковского, 37г";50.431040659252;30.477179506794;https://img.lun.ua/building-1600x1200/28441.png
4466;"ЖК Злагода";"ул. Архитектора Вербицкого, 1";50.412706218077;30.65360577777;https://img.lun.ua/building-1600x1200/25893.jpg
4471;"ЖК Welcome Home на Стеценко";"ул. Стеценко, 75";50.495762490779;30.368990498689;https://img.lun.ua/building-1600x1200/4291.jpg
4515;"ЖК Новая Англия";"ул. Михаила Максимовича (Трутенко), 24";50.39398720329682;30.473860625226735;https://img.lun.ua/building-1600x1200/24263.jpg
4516;"ЖК Покрова";"ул. Сечевых Стрельцов (Артема), 59";50.45495241003591;30.491696694865823;https://img.lun.ua/building-1600x1200/5387.jpg
4541;"ЖК Рідне місто";"ул. Качалова, 40 (бул. Вацлава Гавела, 28)";50.428822795795845;30.415321005006717;https://img.lun.ua/building-1600x1200/5157.jpg
4555;;"ул. Майбороды, 25б";50.46828754755;30.478671720787;https://img.lun.ua/building-1600x1200/3781.jpg
4562;"Клубный дом «Дмитриевская, 60/19»";"ул. Дмитриевская, 60/19";50.45228072857143;30.489308228571435;https://img.lun.ua/building-1600x1200/24340.png
4567;"ЖК Район";"ул. Лисковская, 24";50.52811465617529;30.593710402026772;https://img.lun.ua/building-1600x1200/2705.jpg
4579;"ЖК Акцент";"просп. Академика Глушкова, 9б";50.370540029581;30.46653483063;https://img.lun.ua/building-1600x1200/3783.jpg
4582;"Клубный дом The Garden";"ул. Бусловская, 15";50.40689357504716;30.557400891557336;https://img.lun.ua/building-1600x1200/28313.jpg
4610;"КГ Пуща Residence";"ул. Квитки Цисык, 64";50.551775266822;30.340976257362;https://img.lun.ua/building-1600x1200/3793.jpg
4634;"Таунхаус «Городской дом 2»";"пер. Пролетарский, 19";50.406899558514;30.496447244659;https://img.lun.ua/building-1600x1200/17391.jpg
4637;"ЖК Podil Plaza & Residence";"ул. Глубочицкая, 73-77";50.463426638636776;30.50344423390925;https://img.lun.ua/building-1600x1200/25040.jpg
4646;"Клубный дом «Тихая гавань»";"ул. Набережно-Корчеватская, 27";50.37130497072123;30.551623786759592;https://img.lun.ua/building-1600x1200/3821.jpg
4649;"ЖК RichHouse";"ул. Столетова, 50, 50а, 52";50.397927486149;30.540959704667;https://img.lun.ua/building-1600x1200/18624.jpg
4663;"ЖК Отрадный";"ул. Академика Каблукова, 23";50.436825232164246;30.408289600163698;https://img.lun.ua/building-1600x1200/16480.jpg
4672;"ЖК Cardinal";"ул. Анри Барбюса, 28а";50.42480699289268;30.52244679071009;https://img.lun.ua/building-1600x1200/18652.jpg
4678;"ЖК Welcome Home на Ревуцкого";"ул. Ревуцкого, 48";50.39412783767704;30.65154761078736;https://img.lun.ua/building-1600x1200/5214.jpg
4686;"ЖК Чаривне Мисто";"ул. Бориспольская, 18-26";50.411580649795;30.697344020009;https://img.lun.ua/building-1600x1200/28656.jpg
4687;"ЖК Manhattan city";"просп. Победы, ул. Борщаговская";50.44806256380503;30.479934542429625;https://img.lun.ua/building-1600x1200/20554.jpg
4690;"ЖК Оболонь Плаза Парк";"ул. Маршала Малиновского / просп. Оболонский";50.501004642067;30.4990770109;https://img.lun.ua/building-1600x1200/32694.jpg
4691;"ЖК Smart сity";;0;0;https://img.lun.ua/building-1600x1200/3824.jpg
4692;"ЖК Квартал Европейский";;0;0;https://img.lun.ua/building-1600x1200/3829.jpg
4694;"ЖК Каховская";"ул. Каховская, 60";50.46253066638972;30.592614198994852;https://img.lun.ua/building-1600x1200/18313.jpg
4700;;"ул. Кирилловская / ул. Нижнеюрковская";50.469746370379;30.499982303562;https://img.lun.ua/building-1600x1200/3840.jpg
4709;"Клубный дом «Печерский»";"ул. Менделеева, 12";50.410398684427;30.53427672945;https://img.lun.ua/building-1600x1200/3851.jpg
4710;"ЖД Light house";"ул. Радужная, 50";50.47757977146838;30.588993290439248;https://img.lun.ua/building-1600x1200/3853.jpg
4711;"ЖК SloveSky";"ул. Славская, 58";50.52977805350474;30.59016388308789;https://img.lun.ua/building-1600x1200/3855.jpg
4713;;"ул. Кондукторская, 40";50.4292796354;30.498918658571;https://img.lun.ua/building-1600x1200/3859.jpg
4726;"ЖК Островский";;0;0;https://img.lun.ua/building-1600x1200/3861.jpg
4727;"Клубный дом Spas Sky";"ул. Спасская, 35";50.46930909564237;30.522074857726693;https://img.lun.ua/building-1600x1200/21342.jpg
4728;"ЖК Обериг-2";"ул. Бориспольская, 30а, 40";50.422736530769235;30.693009992307687;https://img.lun.ua/building-1600x1200/25911.jpg
4740;"ЖК Дипломат";"ул. Гоголевская, 44-46";50.45535065059981;30.494566122069955;https://img.lun.ua/building-1600x1200/26754.jpg
4746;"ЖК Chicago Central House";"ул. Антоновича (Горького), 44";50.43363644253682;30.513030448928475;https://img.lun.ua/building-1600x1200/20771.jpg
4748;"ЖК FREEDOM";"просп. Броварской / просп. Освободителей";50.455036875000005;30.606259062499998;https://img.lun.ua/building-1600x1200/17380.jpg
4751;;"ул. Светлицкого, 35";50.507993917297;30.427860554423;https://img.lun.ua/building-1600x1200/3866.jpg
4755;"ЖК AuRoom";"ул. Паньковская, 20/82";50.438170437881;30.501012416292;https://img.lun.ua/building-1600x1200/20670.jpg
4756;;"ул. Академика Туполева, 5а";50.478580123169095;30.394758922493565;https://img.lun.ua/building-1600x1200/3868.jpg
4770;"ЖК Подол Град Vintage";"Вознесенский спуск, 28-30 / ул. Кожемяцкая, 10ж";50.461735561062;30.506258089095;https://img.lun.ua/building-1600x1200/28803.jpg
4772;"ЖК Stanford";"ул. Предславинская, 35";50.423490148838;30.522909614693;https://img.lun.ua/building-1600x1200/36928.png
4773;"ЖК Лебединый";"ул. Ревуцкого, 40";50.402023082818;30.65029559657;https://img.lun.ua/building-1600x1200/18159.jpg
4774;"ЖК V Квартал (Пятый квартал)";"ул. Межевая";50.50101402390802;30.426383027806878;https://img.lun.ua/building-1600x1200/4976.jpg
4783;"КГ Осокор";;50.35340808475676;30.632294941354882;https://img.lun.ua/building-1600x1200/3875.jpg
4785;"ЖК Time";"ул. Липковского, 38";50.432907880595785;30.475003240226215;https://img.lun.ua/building-1600x1200/31001.jpg
4797;"ЖК Seven";"ул. Днепровская набережная, 18";50.398065910256;30.615166008538;https://img.lun.ua/building-1600x1200/35674.jpg
4804;"ЖК CRYSTAL HOUSE";"ул. Жилянская, 26-28";50.43412421408;30.512939309702;https://img.lun.ua/building-1600x1200/26664.jpg
4810;"ЖК Дом на Бориспольской";"ул. Бориспольская, 26";50.42476495363672;30.685468275099993;https://img.lun.ua/building-1600x1200/3892.jpg
4815;"ЖК Вудстория";"ул. Полесская, 4";50.416818199855;30.682064155146;https://img.lun.ua/building-1600x1200/24035.jpg
4820;"ЖК Einstein Concept House";"ул. Златоустовская, 24а";50.449992416416144;30.488783279433846;https://img.lun.ua/building-1600x1200/35384.jpg
4830;"Таунхаусы «Struetinsky»";"ул. Болсуновская (Струтинского), 4";50.419358995309;30.552845913917;https://img.lun.ua/building-1600x1200/34696.jpg
4845;"Таунхаус «Альбион»";"ул. Макаренко, 49";50.524963;30.596772999999985;https://img.lun.ua/building-1600x1200/3906.jpg
4848;"ЖК Зеленые террасы";"ул. Академика Филатова";50.416189607966835;30.531882238098206;https://img.lun.ua/building-1600x1200/3915.jpg
4853;"ЖК Karaway Tower";"ул. Ушинского, 14а";50.432867615925;30.44791655615;https://img.lun.ua/building-1600x1200/19888.jpg
4857;"ЖК Медовый";"ул. Петра Радченко, 27-29";50.41124222728858;30.47345085069537;https://img.lun.ua/building-1600x1200/20546.jpg
4866;"ЖК А52";"ул. Сечевых Стрельцов (Артема), 52а, 52д";50.45727519570278;30.49436361528933;https://img.lun.ua/building-1600x1200/22527.jpg
4868;"Жилой район Rybalsky";"Набережно-Рыбальская дорога, 3, 9";50.480558202905;30.534512713552;https://img.lun.ua/building-1600x1200/34073.jpg
4888;"ЖК Smart Plaza Obolon";"ул. Маршала Тимошенко, 21, корп. 1";50.513077443212985;30.49715087749064;https://img.lun.ua/building-1600x1200/31939.jpg
4889;;"ул. Драгоманова, 38";50.4069773382177;30.637975791469216;https://img.lun.ua/building-1600x1200/3923.jpg
4892;"ЖК Успешный квартал";"ул. Творческая, 4, ул. Успешная, 28, ул. Московская, 5, 6";50.3873857994968;30.458244401961565;https://img.lun.ua/building-1600x1200/27189.jpg
4893;;"ул. Успешная, 9/3";50.385434194537524;30.45539245940745;https://img.lun.ua/building-1600x1200/31620.jpg
4896;"ЖД Cascade house";"ул. Большая Китаевская, 71";50.400716054288;30.531734246761;https://img.lun.ua/building-1600x1200/22825.jpg
4909;"ЖК Eurosky";"ул. Крутогорная, 11а";50.40696673974582;30.484691301360726;https://img.lun.ua/building-1600x1200/3944.jpg
4921;"ЖК The Lakes";"пер. Ясиноватский, 11";50.40937107631279;30.506812054663897;https://img.lun.ua/building-1600x1200/24366.jpg
4929;;"ул. Довженко, 2";50.455782697251436;30.44671551324427;https://img.lun.ua/building-1600x1200/3954.jpg
4930;;"пер. Керамический, 7";50.40210685781496;30.523863891139627;https://img.lun.ua/building-1600x1200/3957.jpg
4934;;"ул. Михаила Драй-Хмары (Тухачевского), 44";50.43740982140031;30.36838848490629;https://img.lun.ua/building-1600x1200/3972.jpg
4935;;"ул. Антоновича, 48б";50.43274645;30.512336025;https://img.lun.ua/building-1600x1200/3974.jpg
4949;"ЖК Crystal Towers";"ул. Амурская";50.39760005702861;30.48786822706461;https://img.lun.ua/building-1600x1200/3978.jpg
4951;"ЖК Mirax";"ул. Глубочицкая, 43";50.462370511093;30.496918536704;https://img.lun.ua/building-1600x1200/18829.jpg
4958;"ЖК Теремки";"ул. Академика Заболотного, 15";50.358312125099;30.476813374558;https://img.lun.ua/building-1600x1200/26097.jpg
4965;"ЖК Friendly House";"ул. Андрея Аболмасова (Панельная), 2";50.459660706834185;30.586058953776956;https://img.lun.ua/building-1600x1200/5025.jpg
4985;"ЖК Orange City";"Лысогорский спуск, 26а";50.38776590539979;30.546095540693614;https://img.lun.ua/building-1600x1200/17340.jpg
4988;"ЖК Славутич 2.0";"просп. Бажана, 151б";50.394908773356;30.60590537265;https://img.lun.ua/building-1600x1200/30997.jpg
4990;"ЖК Twin House";"ул. Крайняя, 1";50.48905162091601;30.611666897311807;https://img.lun.ua/building-1600x1200/16272.jpg
4991;;"ул. Народная, 54а";50.41386422203674;30.478293662890792;https://img.lun.ua/building-1600x1200/3999.jpg
4992;"ЖК Дом на Волошина";"ул. Августина Волошина, 32а";50.43605828312083;30.438264352796978;https://img.lun.ua/building-1600x1200/29818.jpg
5007;"ЖК Praga";"ул. Лисковская, 31";50.529559688885;30.592201966792;https://img.lun.ua/building-1600x1200/4001.jpg
5047;"Клубный дом HillSide";"ул. Лукьяновская, 18-20";50.46497473521401;30.50436289049685;https://img.lun.ua/building-1600x1200/4009.png
5052;"ЖК Файна Таун";"ул. Салютная, 2б";50.468990761358;30.404429890789;https://img.lun.ua/building-1600x1200/19152.jpg
5063;;"ул. Докучаевская, 5а";50.428992537351206;30.49575082026422;
5072;"ЖК Привітний квартал";"ул. Евгения Харченка (Ленина), 55";50.381210869208;30.700537936827;https://img.lun.ua/building-1600x1200/28997.jpg
5073;"ЖК Караваевы Дачи";"ул. Полевая, 73";50.43507069352163;30.445532239973545;https://img.lun.ua/building-1600x1200/17140.jpg
5075;"Таунхаус «Good House»";"ул. Профессора Караваева, 1/28";50.436329918583084;30.442408365724987;https://img.lun.ua/building-1600x1200/4029.jpg
5078;"ЖК 044";"ул. Кирилловская, 37, 37а";50.470745543284;30.500883784542;https://img.lun.ua/building-1600x1200/30648.jpg
5082;"Клубный дом Brownie House";"ул. Клиническая, 4";50.418614834566355;30.485114497660106;https://img.lun.ua/building-1600x1200/18519.jpg
5085;"Клубный дом M31 Park House";"пер. Мичурина, 31";50.422644445864;30.557569870725;https://img.lun.ua/building-1600x1200/4046.jpg
5093;"ЖК Мандарин";"ул. Волошкова, 1";50.39267629300902;30.460479537025094;https://img.lun.ua/building-1600x1200/27001.jpg
5105;"ЖК GENESIS";"пер. Индустриальный, 2";50.44224218128443;30.44376508332789;https://img.lun.ua/building-1600x1200/34928.jpg
5150;"ЖК Comfort Club";"ул. Батумская, 9а, 9б";50.404917403299955;30.5022286567837;https://img.lun.ua/building-1600x1200/26179.jpg
5162;"ЖК Багговутовский";"ул. Багговутовская, 17-21";50.47055704457489;30.480437139049172;https://img.lun.ua/building-1600x1200/16393.jpg
5163;"ЖК Бережанский";"ул. Бережанская, 15";50.51538257225239;30.45709948188492;https://img.lun.ua/building-1600x1200/16389.jpg
5169;"ЖК Sky Hill";"ул. Николая Соловцова, 2";50.4049199677008;30.556307891383767;https://img.lun.ua/building-1600x1200/21582.jpg
5183;"Клубный дом «Як у Львові»";"ул. Петропавловская, 38б";50.484514415474564;30.462596034631133;https://img.lun.ua/building-1600x1200/16252.jpg
5216;"ЖК Лесная сказка 2";"ул. Радистов, 40";50.48008835435063;30.67057030633441;https://img.lun.ua/building-1600x1200/16852.png
5229;"ЖК IL Patio";"ул. Радужная, 56";50.476821899166666;30.58883906342089;https://img.lun.ua/building-1600x1200/16514.png
5231;"Клубный дом «На Соловцова»";"ул. Николая Соловцова, 2б";50.404883854052;30.555900195614;https://img.lun.ua/building-1600x1200/21452.png
5237;"Таунхаусы «Liverpool House»";"ул. Яблоневая, 20";50.385450002993;30.44210543856;https://img.lun.ua/building-1600x1200/34405.png
5240;"ЖК Creator City";"ул. Дегтяревская, 17-19";50.46209902302934;30.46202899888158;https://img.lun.ua/building-1600x1200/36376.png
5247;;"ул. Нововокзальная, 69-75";50.432549093748;30.498394859305;https://img.lun.ua/building-1600x1200/22588.jpg
5252;"ЖК San Francisco Creative House";"просп. Победы, 67";50.4585041233;30.4083964226;https://img.lun.ua/building-1600x1200/20708.jpg
5253;"Клубный дом «На Радистов»";"ул. Радистов, 10-14";50.47605035998234;30.670258859172463;https://img.lun.ua/building-1600x1200/32124.jpg
5255;"ЖК Family & Friends";"ул. Новополевая, 2";50.43233140699554;30.442771036177874;https://img.lun.ua/building-1600x1200/19130.jpg
5256;"ЖК BaikalSKY";"ул. Байкальская, 29";50.395131487921;30.537352720276;https://img.lun.ua/building-1600x1200/16764.jpg
5279;"Клубный дом Turgenev";"ул. Тургеневская, 22а";50.450298749234;30.493923574118;https://img.lun.ua/building-1600x1200/19674.jpg
5301;"ЖК Шоколад";"ул. Академика Лебедева, 1";50.349645795968;30.489070268607;https://img.lun.ua/building-1600x1200/17164.jpg
5306;"ЖК Svitlo Park";"Надднепрянское шоссе, 2а";50.392786588444;30.557608678937;https://img.lun.ua/building-1600x1200/31075.jpg
5308;;"ул. Львовская / ул. Живописная";50.453427732108;30.350211896002;https://img.lun.ua/building-1600x1200/22420.png
5309;"Таунхаус «Протасов Яр»";"ул. Петра Заломова";50.41753374228022;30.491437325254083;https://img.lun.ua/building-1600x1200/27353.jpg
5314;"Таунхаус «Karpatsky»";"ул. Карпатская, 26а";50.432792014149;30.438212910667;https://img.lun.ua/building-1600x1200/17257.jpg
5383;"ЖК Forest Park";"ул. Днепроводская, 1";50.567439537981;30.459125675261;https://img.lun.ua/building-1600x1200/20442.jpg
5389;;"бул. Тараса Шевченко, 32, 32а";50.445478646508;30.504163736477;https://img.lun.ua/building-1600x1200/18001.jpg
5390;"ЖК Сырецкие сады";"ул. Маршала Гречко, 10б";50.484737299157;30.415309383825;https://img.lun.ua/building-1600x1200/20070.jpg
5406;;"ул. Дегтяревская, 7, 7а";50.459908295741;30.481091625988;https://img.lun.ua/building-1600x1200/18116.jpg
5425;"Клубный дом Corner";"ул. Пожарского, 16б";50.513922855685;30.591783290729;https://img.lun.ua/building-1600x1200/28953.png
5438;"ЖК Эрнста";"ул. Федора Эрнста, 14";50.415994697916;30.462207365781;https://img.lun.ua/building-1600x1200/18492.jpg
5450;"ЖК Forest";"ул. Милютенко / ул. Шолом-Алейхема";50.472319822589;30.629625488073;https://img.lun.ua/building-1600x1200/30445.jpg
5454;"ЖК Kyiv Residence";"ул. Пирятинская, 6Б";50.422167433891;30.560590716995;https://img.lun.ua/building-1600x1200/28134.jpg
5455;"ЖК Solo Town";;0;0;https://img.lun.ua/building-1600x1200/18708.jpg
5461;"ЖК Resident Concept House";"ул. Владимирская, 86а";50.434781118219;30.508285397664;https://img.lun.ua/building-1600x1200/20702.jpg
5463;"Таунхаус «Деснянская усадьба»";"ул. Деснянская, 40";50.51947252516029;30.578035628423095;https://img.lun.ua/building-1600x1200/18913.jpg
5475;"Клубный дом Tarasovskiy Apartments";"ул. Тарасовская, 9в";50.437785758318;30.50746419467;https://img.lun.ua/building-1600x1200/18944.jpg
5486;"Таунхаусы «Лагуна»";"ул. 7-я Абрикосовая";50.348216116155;30.631060637534;https://img.lun.ua/building-1600x1200/19027.jpg
5531;;"ул. Садовая, 3";50.386582172298;30.442822957411;https://img.lun.ua/building-1600x1200/31619.jpg
5534;"ЖК Соломенский";"ул. Университетская, 23-27";50.416551300404;30.486014122144;https://img.lun.ua/building-1600x1200/26525.png
5546;"ЖК Edeldorf";"ул. Старонаводницкая, 42";50.426346409359;30.555076587756;https://img.lun.ua/building-1600x1200/35675.jpg
5551;"ЖК Лукьяновский каскад";"ул. Половецкая, 4";50.470426446881;30.4843194969;https://img.lun.ua/building-1600x1200/28349.png
5552;"ЖК Выставочный";"ул. Героев Обороны, 8";50.381842573137;30.4884849675;https://img.lun.ua/building-1600x1200/19569.jpg
5553;"ЖК Киевская Швейцария";"ул. Макаровская, 3";50.477663333004;30.47397423055;https://img.lun.ua/building-1600x1200/19575.jpg
5566;"ЖК Вересковый";"пер. Вересковый, 10";50.382034563512;30.707094306126;https://img.lun.ua/building-1600x1200/19665.jpg
5601;"ЖК Nyvky Plaza";"ул. Маршала Гречко, 5";50.490626537601;30.405266323978;https://img.lun.ua/building-1600x1200/23859.jpg
5606;"ЖК LaLaLand";"ул. Берковецкая, 6";50.498448335984;30.357214241075;https://img.lun.ua/building-1600x1200/22867.jpg
5619;"ЖК Русановская Гавань";"ул. Евгена Маланюка (Сагайдака), 101";50.460320940764;30.583624917853;https://img.lun.ua/building-1600x1200/29654.jpg
5622;"Клубный дом «Эдельвейс Феофании»";"ул. Академика Лебедева, 1";50.348887477543;30.489156232215;https://img.lun.ua/building-1600x1200/29400.jpg
5636;"ЖК White Lines";"ул. Васильковская, 1";50.396785539565;30.507910547132;https://img.lun.ua/building-1600x1200/20399.jpg
5642;"ЖК ZIM Towers";"ул. Сумская, 3";50.39523707084;30.488874055445;https://img.lun.ua/building-1600x1200/20422.jpg
5653;"ЖМ Патриотика на озерах";"ул. Коллекторная";50.385056231859;30.637629702687;https://img.lun.ua/building-1600x1200/30001.jpg
5658;"ЖК Standard One";"ул. Васильковская, 100а";50.382372356026;30.476509574801;https://img.lun.ua/building-1600x1200/33695.jpg
5679;"ЖК SunRise House";"пер. Кудряшова, 10г";50.43091473897;30.489844847471;https://img.lun.ua/building-1600x1200/21097.jpg
5699;"ЖК Philadelphia Concept House";"Кловский спуск, 19";50.436867088954;30.541134048253;https://img.lun.ua/building-1600x1200/33469.jpg
5711;"ЖК SAGA City Space";"ул. Петра Сагайдачного, 18";50.461727225927;30.5211890582;https://img.lun.ua/building-1600x1200/24424.png
5713;"ЖК Urban Park";"ул. Магнитогорская, 5";50.462944183425;30.645649507636;https://img.lun.ua/building-1600x1200/34567.jpg
5719;"Клубный дом «Деснянский DeLuxe»";"ул. Толстого, 47";50.519094353283;30.594420740381;https://img.lun.ua/building-1600x1200/21608.jpg
5720;"Клубный дом Podilsky";"ул. Лукьяновская, 19";50.464512465151;30.504409242421;https://img.lun.ua/building-1600x1200/23658.jpg
5722;"ЖК Район-2";"ул. Лисковская, 23";50.529927579451;30.591779749878;https://img.lun.ua/building-1600x1200/28477.jpg
5733;"ЖК Урловский-2";"ул. Клеманская";50.416733888088;30.606558658183;https://img.lun.ua/building-1600x1200/21879.jpg
5734;"ЖК Коломиевский";"пер. Коломиевский, 6";50.389484700892;30.493905711919;https://img.lun.ua/building-1600x1200/21887.jpg
5735;"ЖК Просвещения, 14";"ул. Просвещения, 14";50.424665271457;30.467194302657;https://img.lun.ua/building-1600x1200/21898.png
5736;"ЖК Электриков";"пер. Электриков, 11";50.481475336073;30.510951513425;https://img.lun.ua/building-1600x1200/21904.png
5737;"ЖК Урловский-1";"ул. Причальная, 11";50.410483259545;30.611503310503;https://img.lun.ua/building-1600x1200/21908.jpg
5740;"ЖК Diadans";"ул. Евгения Коновальца, 19";50.426601189292;30.527703083082;https://img.lun.ua/building-1600x1200/32422.jpg
5745;"ЖК Art Парк";"ул. Бориспольская, 67";50.417446559712;30.716905407607;https://img.lun.ua/building-1600x1200/22008.jpg
5749;"ЖК Аквамарин";"просп. Победы, 131";50.454272220546;30.350839365274;https://img.lun.ua/building-1600x1200/22404.jpg
5754;"ЖК Struetinsky Residence";"ул. Болсуновская, 8";50.419588429353;30.55241801776;https://img.lun.ua/building-1600x1200/36314.jpg
5779;;"ул. Маршака, 5-9";50.468370806231;30.345269490033;https://img.lun.ua/building-1600x1200/22239.jpg
5786;"Клубный дом Greenwood";"ул. Кисловодская, 100";50.475805411291;30.681353146211;https://img.lun.ua/building-1600x1200/30514.jpg
5792;;"ул. Вышгородская, 47ж";50.514767559228;30.448208262479;https://img.lun.ua/building-1600x1200/36727.jpg
5793;"ЖК Greenville Park";"ул. Пимоненко, 21";50.46144574425;30.491447903216;https://img.lun.ua/building-1600x1200/22409.jpg
5812;"ЖК O2 Residence";"Бориспольское шоссе";50.390294288241;30.725707789103;https://img.lun.ua/building-1600x1200/22607.jpg
5821;"ЖК Praga-2";"ул. Милославская, 20";50.531865068326;30.59389628298;https://img.lun.ua/building-1600x1200/30364.jpg
5824;"ЖК Старт";"ул. Шолуденко, 30";50.458346444951;30.480568988335;https://img.lun.ua/building-1600x1200/30999.jpg
5825;"ЖК Salut";"бул. Дружбы Народов, 2";50.410701307367;30.527551727589;https://img.lun.ua/building-1600x1200/35962.jpg
5826;"ЖК Navigator";"пер. Балтийский, 23";50.497983731051;30.467054072065;https://img.lun.ua/building-1600x1200/26871.jpg
5827;;"ул. Круглоуниверситетская, 5-7";50.44359162629;30.523384530097;
5832;"КГ Конык";"ул. Февральская, 58";50.340853723316;30.560677863657;https://img.lun.ua/building-1600x1200/22783.jpg
5842;"ЖК Olympic Park";"Харьковское шоссе, 210";50.403493337737;30.677738953381;https://img.lun.ua/building-1600x1200/22872.jpg
5843;"ЖК Fjord";"Военный проезд, 8";50.407280712606;30.547972761706;https://img.lun.ua/building-1600x1200/31710.jpg
5845;"ЖК Poetica";"ул. Дегтяревская, 25а";50.460573715897;30.451404027092;https://img.lun.ua/building-1600x1200/25599.jpg
5855;"ЖК Kolibri";;0;0;https://img.lun.ua/building-1600x1200/24239.jpg
5926;"ЖК Дніпровська Мрія";"ул. Сосюры, 6";50.442199476221;30.631460286677;https://img.lun.ua/building-1600x1200/23509.jpg
5948;"ЖК Днепровский";"ул. Гродненская, 14";50.438577139983;30.646814424545;https://img.lun.ua/building-1600x1200/28080.jpg
5954;;"ул. Академика Глушкова, 42";50.360972740591;30.437150857527;
5964;"ЖК Львовская площадь";"ул. Кудрявская, 24а";50.458045656001;30.503357643763;https://img.lun.ua/building-1600x1200/25058.jpg
5969;;"ул. Евгена Маланюка (Сагайдака), 101, дом 31";50.458210969243;30.5825233832;https://img.lun.ua/building-1600x1200/29621.jpg
5974;"ЖК Зелёный замок";"ул. Мирная, 2/1";50.464366484584;30.507759321481;
5978;"ЖК Варшавский Плюс";"просп. Правды";50.506064539008;30.411229804158;https://img.lun.ua/building-1600x1200/35673.jpg
5997;"Linden Luxury Residences";"ул. Лютеранская, 14в";50.444332569713;30.52459673956;https://img.lun.ua/building-1600x1200/35503.jpg
6002;"Клубный дом LA MANCHE";"ул. Щекавицкая, 46";50.472848942202;30.516920424998;https://img.lun.ua/building-1600x1200/32356.jpg
6009;"ЖК Новый Подол";"ул. Набережно-Луговая";50.475929129475;30.514756590128;https://img.lun.ua/building-1600x1200/24423.png
6010;"ЖК Amsterdam Concept House";"ул. Константиновская";50.473498380679;30.497857667506;https://img.lun.ua/building-1600x1200/24426.png
6011;"ЖК The Park Residence";"ул. Дмитрия Луценко, 11, 13";50.396511009719;30.467654462943;https://img.lun.ua/building-1600x1200/24432.jpg
6013;;"ул. Жилянская, 96а";50.439809671522;30.499522257596;https://img.lun.ua/building-1600x1200/25254.jpg
6021;"ЖК LookyanSky";"ул. Лукьяновская";50.462698840541;30.492810766177;https://img.lun.ua/building-1600x1200/33295.jpg
6034;"ЖК Montreal House";"ул. Большая Васильковская, 102у / ул. Антоновича, 83";50.425653700875;30.515363384038;https://img.lun.ua/building-1600x1200/30867.jpg
6043;"Standard One Terminal";"ул. Ползунова, 1б";50.438208997739;30.485032964498;https://img.lun.ua/building-1600x1200/36454.jpg
6056;;"ул. Кольцова, 24а";50.425498329812;30.376094353014;https://img.lun.ua/building-1600x1200/30674.jpg
6073;"Клубный дом «Ширма Club»";"ул. Генерала Доватора, 2а";50.403155685915;30.501108967617;https://img.lun.ua/building-1600x1200/27817.png
6079;"ЖК Вектор";"ул. Добробутная, 7";50.38523985665;30.440526452021;https://img.lun.ua/building-1600x1200/25321.png
6082;"ЖК Итальянский квартал";"ул. Богатырская, 32";50.542795751461;30.493246097333;https://img.lun.ua/building-1600x1200/25359.png
6086;"ЖК Healthy City";"ул. Джона Маккейна (Ивана Кудри), 5";50.41507969407;30.529260486388;https://img.lun.ua/building-1600x1200/25446.jpg
6103;"Клубный дом Concordia";"ул. Кудрявская, 45";50.458726049367;30.503592961377;https://img.lun.ua/building-1600x1200/30935.jpg
6120;"ЖК Finland Yard";"ул. Радистов, 30";50.478012452112;30.669600587934;https://img.lun.ua/building-1600x1200/27221.jpg
6128;"МФК Intergal City";"ул. Старонаводницкая, 16б";50.425265;30.548662;https://img.lun.ua/building-1600x1200/35508.jpg
6144;"ЖК Happy House";"просп. Победы, 72";50.458214;30.428241;https://img.lun.ua/building-1600x1200/27616.jpg
6153;"Таунхаус «Пирогово»";"ул. Лауреатская, 102";50.347895700815;30.514820329153;https://img.lun.ua/building-1600x1200/26323.jpg
6194;"ЖК Terracotta";"просп. Николая Бажана";50.403862401912;30.673674138238;https://img.lun.ua/building-1600x1200/28946.jpg
6198;"Клубный дом Skyland 3";"ул. Сергея Колоса";50.391659561736;30.460484925549;https://img.lun.ua/building-1600x1200/26821.jpg
6199;"ЖК Академ-Квартал";"пер. Приборный, 10";50.472405828193;30.36227462647;https://img.lun.ua/building-1600x1200/30202.jpg
6214;"ЖК SKY AVENUE";"ул. Народного Ополчения, 3";50.416017670831;30.455704801294;https://img.lun.ua/building-1600x1200/34904.jpg
6227;;"ул. Казимира Малевича, 44, 46";50.424505196651;30.512902906686;
6230;"ЖК Washington Concept House";"ул. Лабораторная, 12";50.425537344574;30.518785810877;https://img.lun.ua/building-1600x1200/33396.jpg
6240;;"пер. Делегатский, 4, 6";50.472146113833;30.476927404783;
6244;"ЖК Радужный";"ул. Кибальчича, 2";50.492708485484;30.586502000611;https://img.lun.ua/building-1600x1200/27232.jpg
6245;"ЖК Абрикосовый";"ул. Жулянская";50.367450883027;30.439944361049;https://img.lun.ua/building-1600x1200/30944.jpg
6250;"ЖК Tourbillon";"ул. Протасов Яр, ул. Николая Амосова";50.421175755637;30.49785461337;https://img.lun.ua/building-1600x1200/27864.jpg
6263;"ЖК OK'LAND";"просп. Воздухофлотский, 56";50.422551648639;30.455601623697;https://img.lun.ua/building-1600x1200/32665.jpg
6266;;"ул. Багговутовская, 16";50.470383257502;30.477471636654;https://img.lun.ua/building-1600x1200/27460.png
6286;"Клубный дом Gardenhouse";"ул. Казацкая, 55";50.402100621565;30.505861414082;https://img.lun.ua/building-1600x1200/27701.jpg
6314;"ЖК Науки 58";"просп. Науки, 58";50.381334504255;30.532436695292;https://img.lun.ua/building-1600x1200/27991.jpg
6321;"Клубный дом «Олеговая гора»";"пер. Лукьяновский, 3";50.464583386963;30.500838943607;https://img.lun.ua/building-1600x1200/27953.jpg
6323;"ЖК Club House";"ул. Яблочная, 11-15";50.385900203804;30.444298545057;https://img.lun.ua/building-1600x1200/28865.jpg
6325;"ЖК Новый Автограф";"ул. Генерала Жмаченко, 26";50.468049788821;30.609887645536;https://img.lun.ua/building-1600x1200/29673.jpg
6339;;"ул. Цимбалов Яр, 31";50.398611661688;30.523259928172;
6358;"ЖК Лондон Парк";"ул. Луговая, 3б";50.385198244114;30.452795323357;https://img.lun.ua/building-1600x1200/28485.jpg
6366;"ЖК Лисовый-2";"ул. Генерала Матыкина, 12";50.300285851351;30.575060895285;https://img.lun.ua/building-1600x1200/28592.jpg
6375;"ЖК Медовый-2";"ул. Петра Радченко, 27";50.409765545878;30.476789137683;https://img.lun.ua/building-1600x1200/28743.jpg
6394;"ЖК Причал 8";"ул. Канальная, 8";50.42031550787;30.611313062031;https://img.lun.ua/building-1600x1200/31663.jpg
6395;"Клубный дом «Лайтхаус»";"ул. Пожарского, 70";50.51851662088;30.593739489669;https://img.lun.ua/building-1600x1200/28982.jpg
6401;"ЖК Art House";"ул. Михаила Максимовича (Трутенко), 3";50.391793489452;30.475979629996;https://img.lun.ua/building-1600x1200/30855.jpg
6405;"ЖК Great";"Днепровская набережная";50.411486930586;30.598887409007;https://img.lun.ua/building-1600x1200/29291.jpg
6406;;"ул. Лесозащитная, 17";50.525289867221;30.436020578129;
6407;"ЖК Отрада";"просп. Отрадный, 93/2";50.422649848741;30.427622156178;https://img.lun.ua/building-1600x1200/29095.jpg
6408;"ЖК Aria";"бул. Дружбы Народов, 13а";50.415116743887;30.537552791224;https://img.lun.ua/building-1600x1200/30343.jpg
6416;"ЖК Метро парк";"ул. Каменская, 123";50.405470957471;30.670175643102;https://img.lun.ua/building-1600x1200/30002.jpg
6423;"ЖК Crystal Park Tower";"просп. Победы, 42";50.454152997493;30.45214458263;https://img.lun.ua/building-1600x1200/29230.jpg
6429;"Клубный дом «Марсель»";"ул. Нижнеюрковская, 8б";50.466718949357;30.493763495148;https://img.lun.ua/building-1600x1200/29642.jpg
6439;"ЖК Вежа на Ломоносова";"ул. Ломоносова, 33/43";50.390403238183;30.487238956519;https://img.lun.ua/building-1600x1200/36219.jpg
6440;;"ул. Курнатовского, 20";50.48593794221;30.6046019295;https://img.lun.ua/building-1600x1200/29543.jpg
6465;"ЖК Loft Park";"ул. Железнодорожная, 32";50.442675105198;30.452090033053;https://img.lun.ua/building-1600x1200/29787.jpg
6480;"КГ Осокорки Residence";"ул. 180-я Садовая, 5";50.367804719702;30.780018199021;https://img.lun.ua/building-1600x1200/29912.jpg
6500;"ЖК Greenville на Печерске";"пер. Новопечерский, 5";50.424432063574;30.529608755853;https://img.lun.ua/building-1600x1200/30653.jpg
6523;"ЖК UNIT.Home";"ул. Семьи Хохловых, 8";50.465383841418;30.464403929425;https://img.lun.ua/building-1600x1200/35209.jpg
6527;"Апарт-комплекс в Пуще Водице";"ул. Квитки Цисык, 34, 36";50.538386333038;30.358031602679;https://img.lun.ua/building-1600x1200/30525.jpg
6562;"ЖК А136";"ул. Антоновича, 136-138";50.419396054756;30.518210285181;https://img.lun.ua/building-1600x1200/30799.jpg
6590;"ЖК Современный квартал";"просп. Космонавта Комарова, 9б";50.43284684547;30.404841074023;https://img.lun.ua/building-1600x1200/32819.jpg
6609;"ЖК Lipki Island City Resort";"ул. Набережно-Рыбальская";50.478561963484;30.528083375828;https://img.lun.ua/building-1600x1200/31302.jpg
6610;"ЖК Forest Avenue";"ул. Лесная, 78";50.384421252518;30.714166310967;
6620;"Клубный квартал «Феофания-park»";"ул. Метрологическая";50.346747608911;30.474571462327;https://img.lun.ua/building-1600x1200/31515.jpg
6642;"ЖК Illinsky House";"ул. Набережно-Крещатицкая, 21";50.465763332638;30.524561296369;https://img.lun.ua/building-1600x1200/31725.jpg
6647;;"ул. Каунасская, 27";50.430346737102;30.626657682976;https://img.lun.ua/building-1600x1200/36038.png
6650;"ЖК 50Avenue";"просп. Победы, 50а";50.455352191409;30.443245298372;https://img.lun.ua/building-1600x1200/35414.jpg
6664;;"ул. Набережно-Корчеватская, 29";50.370858183157;30.55175208868;
6674;"ЖК Rusaniv Residence";"ул. Сверстюка, 54";50.442449190468;30.606866470993;https://img.lun.ua/building-1600x1200/34093.jpg
6683;"ЖК Wood Park";"ул. Радистов, 24";50.477308657304;30.669538428138;https://img.lun.ua/building-1600x1200/32198.jpg
6688;"ЖК Franklin Concept House";"ул. Олеся Гончара, 69";50.447846107599;30.496695782769;https://img.lun.ua/building-1600x1200/32315.jpg
6691;;"ул. Ивана Кочерги, 17а";50.418576909819;30.62055137817;https://img.lun.ua/building-1600x1200/34950.jpg
6693;"Таунхаус «SovSky House»";"ул. Заветная, 25";50.401502717634;30.477447881988;https://img.lun.ua/building-1600x1200/32397.jpg
6698;;"ул. Воскресенская, 2а";50.465509;30.60125;
6718;"ЖК Голосеевский";"ул. Васильковская, 37";50.391812077904;30.485924225605;https://img.lun.ua/building-1600x1200/32804.jpg
6744;;"ул. Сергея Колоса, 3";50.391173980553;30.46034432007;https://img.lun.ua/building-1600x1200/33538.jpg
6757;"ЖК Ревуцкий";"ул. Ревуцкого/ ул. Вишняковская";50.392732625763;30.65293776105;https://img.lun.ua/building-1600x1200/33413.jpg
6774;"Таунхаусы «New Smart 6»";"ул. Смерекова";50.397273770896;30.449235434405;https://img.lun.ua/building-1600x1200/33631.jpg
6796;"Таунхаус «Новая Эллада»";"ул. Рокитнянская, 11а";50.475336841376;30.343900621892;https://img.lun.ua/building-1600x1200/33794.jpg
6811;"ЖК DOCK32";"просп. Степана Бандеры, 32д";50.485180961819;30.532635516136;https://img.lun.ua/building-1600x1200/35609.jpg
6816;"ЖК Dibrova Park";"ул. Северо-Сырецкая";50.491077177523;30.419547392824;https://img.lun.ua/building-1600x1200/35181.jpg
6822;"ЖК Павленко Холл";"ул. Павленко, 10";50.464195411393;30.337498466359;https://img.lun.ua/building-1600x1200/34099.jpg
6824;"ЖК Lucky Land";"ул. Берковецкая, 6";50.4969588;30.3613237;https://img.lun.ua/building-1600x1200/35223.png
6826;;"ул. Причальная, 5а";50.41237037107;30.601102727231;https://img.lun.ua/building-1600x1200/34119.jpg
6830;;"ул. Ясногорская";50.481569943409;30.43871708656;
6836;"ЖК Медовый 3";"ул. Петра Радченко, 27";50.412326467226;30.469302522507;https://img.lun.ua/building-1600x1200/34244.jpg
6837;;"ул. Жмеринская, 5";50.440698124448;30.390171248209;https://img.lun.ua/building-1600x1200/34247.jpg
6838;;"ул. Федора Кричевского, 19";50.449735274641;30.366387294744;https://img.lun.ua/building-1600x1200/34248.jpg
6839;;"ул. Николая Василенко, 2";50.454487300831;30.416507461985;https://img.lun.ua/building-1600x1200/34249.jpg
6852;;"пер. Слободской";50.461031833528;30.586434812221;
6861;;"ул. Кудряшова, 8";50.434170490603;30.489418657046;
6864;"ЖК Evita";"ул. Пироговский шлях, 239";50.33624574983;30.536531458228;https://img.lun.ua/building-1600x1200/34466.jpg
6887;"ЖК Берег Днепра";"Днепровская набережная, 17в";50.410911916466;30.600208530106;https://img.lun.ua/building-1600x1200/34855.png
6921;;"ул. Межевая";50.497742330211;30.423557290144;
6922;;"ул. Московская, 7";50.44087834506;30.545125892838;
6923;;"ул. Госпитальная, 4";50.435931131411;30.522333354279;
6928;;"ул. Мечникова, 7б";50.438055027194;30.532842954693;
6942;;"ул. Гоголевская, 32в";50.452794831958;30.495713388585;
6953;;"ул. Просвещения, 3а";50.425387913316;30.46684282732;https://img.lun.ua/building-1600x1200/35701.jpg
6954;"ЖК Гончара 22";"ул. Гончара, 22";50.4518802;30.5076657;https://img.lun.ua/building-1600x1200/35703.jpg
6967;"Таунхаус «Протасов Яр 2»";"ул. Шпилевая, 3";50.416845744766;30.489479483284;https://img.lun.ua/building-1600x1200/35792.jpg
6986;"ЖК Be the One";"ул. Василия Стуса, 35-37";50.458510845498;30.359302717842;https://img.lun.ua/building-1600x1200/36176.jpg
6990;;"пер. Ватутина";50.395622533373;30.425810058128;
6992;"Клубный дом «Весна на улице Осенней»";"ул. Осенняя, 59";50.46665040779;30.342917404775;https://img.lun.ua/building-1600x1200/36276.png
7003;"ЖК Delrey";"Военный проезд, 8";50.406818769541;30.548739210247;https://img.lun.ua/building-1600x1200/36674.png
